"SupplierNumber","CorporateGroupID","Name1","Name2","POBox","Street","PostalCode","City","CountryCoded","TelephoneNumber","FaxNumber","VATRegistrationNumber","TaxNumber1","TaxNumber2"
20152837,4200,"WILLY A. BACHOFEN AG","SN ARG",,"JUNKERMATTSTRASSE 11 11",4132,"MUTTENZ","CH",,,"CHE105966896",,
20201450,4200,"CON-SER S.A.","DAN ARG",,"INT. GARRAHAN 348",1748,"GRAL RODRIGUEZ","AR",,,,30569613392,9028712325
20090063,4200,"BENEO-ORAFTI S.A.","SUDZUCKER",,"RUE LOUIS MARÉCHAL 1",4360,"OREYE","BE",3219679401,19679424,"BE0413631556",,
20105370,4200,"CARGILL BV","CARGILL",,"NIJVERHEIDSSTRAAT 1","4551 LA","SAS VAN GENT","NL",115459462,115453497,"NL002230185B01",,
20138061,4200,"CARGILL NV","CARGILL",,"BEDRIJVENLAAN 9",2800,"MECHELEN","BE",51332271,3251332671,"BE0405546706",,
20095609,4200,"DSM NUTRITIONAL PRODUCTS EUROPE LTD","DSM",2676,"WURMISWEG 576",4303,"KAISERAUGST","CH",442189746,"46857 3116","CHE116320592MWST",,
20153638,4200,"DSM PROD NUTRICIONAIS BRASIL SA","DSM PRODUT",,"ROD SANTOS DUMONT SP 075 SN",13053050,"CAMPINAS","BR","19 3765 8900","00 0000 0000",,56992951002192,79554368011
20154856,4200,"DUPONT DANMARK APS","EX DANISCO",,"LANGEBROGADE 1",1411,"COPENHAGEN K","DK",,,"DK58158828",,
20307273,4200,"RIOS GRADIN S.A.","SN ARG",,"ESTADOS UNIDOS 972",1101,"CAPITAL FEDERAL","AR",1145526033,,,30709127426,
20095582,4200,"GIVAUDAN INTERNATIONAL AG","GIVAUDAN",,"NEUGUTSTRASSE 46 46",8600,"DÜBENDORF","CH",228408317,228408316,"CHE116284588",,
20090148,4200,"INGREDION GERMANY GMBH","INGREDION",,"GRUENER DEICH 110",20097,"HAMBURG","DE",4023915400,4023915400,"DE814591607",,
20137941,4200,"KYOWA HAKKO EUROPE GMBH",,,"AM WEHRHAHN 50,",40211,"DUSSELDORF","DE",49211175450,4921117545442,"DE121300368",,
20137931,4200,"RETTENMAIER BENELUX C.V.",,,"DE STOVEN 41","7206 AZ","ZUTPHEN","NL","0031 575 510333","0031 575 519950","NL855863912B01",,
20141714,4200,"SOLAE EUROPE SA","SOLAE EURO",,"CHEMIN DU PAVILLON 2",1218,"LE GRAND-SACCONNEX","CH",,,"CHE101505929",,
20183163,4200,"VITABLEND NEDERLAND B.V.","VITABLEND",,"FRISAXSTRAAT 1","8471 ZW","WOLVEGA","NL",561691888,561614501,"NL814886279B01",,
20328124,4200,"MATHIESEN ARGENTINA SA",,,"LARRAZABAL AV. 1648",1440,"CCAPITAL FEDERAL","AR",1160916900,,,30576347460,
20195452,4200,"ESCO ARGENTINA S.A.",,,"AV LA PLATA 1522",1071,"CAPITAL FEDERAL","AR","4 920 7100",,,30657074787,9019842617
10007027,4200,"NABUURS DC NUTRICIA CUIJK","VP TECHN P",,"Schuttersweg 14b","5443 PR","Haps","NL",,,,,
20147330,4200,"DELAFRUIT S.L.U.","GO FRUSELV",,"AV. CARINTIA, S/N, POLIGONO MILLENI",43470,"LA SELVA DEL CAMP","ES",34673444389,"977 845 762","ESB61690848","B61690848",
10006235,4200,"BLEDINA STEENVOORDE FACTORY","HO GOLDEN",,"Rue Remy Goetgheluck",59114,"Steenvoorde","FR","33 3 28 42 61 00","33 3 28 42 61 08","FR00301374922",,
20336765,4200,"AXIA SA","SN ARG",,"RUTA 19 KM 4.8",3016,"SANTO TOME","AR",3424749410,,,30708995181,
10006875,4200,"Nutricia Zakłady Produkcyjne Sp. z.","HO GOLDEN",,"Marka z Jemielnicy 1",45578,"Opole","PL","48 77 40 22 200",,"PL7540335340","754-033-53-40",
20279267,4200,"MATAFUEGOS DONNY S.R.L.","SN ARG",,"GRAL RODRIGUEZ 2838",1416,"CAPITAL FEDERAL","AR",,,,30627028969,"901-942873-"
20279262,4200,"ECOFILT SA","SN ARG",,"SUIPACHA 2971",1650,"SAN MARTIN","AR",,,,30615555769,"901-922504-"
20279272,4200,"TEC INSTRUMENTAL SA","SN ARG",,"RUIZ HUIDOBRO 2543",1000,"CAPITAL FEDERAL","AR",,,,30641504579,"901-953718-"
20279268,4200,"DHL GLOBAL FORWARDING ( ARGENTINA)","SN ARG",,"BERANRDO DE IRIGOYEN 308 PISO1",1000,"CAPITAL FEDERAL","AR",,,,30584715932,"901-150633-"
20279273,4200,"FIMANN DE RATZMANN NICOLAS Y FISCEL","SN ARG",,"LARREA 2344",1744,"MORENO","AR",,,,30596551765,
20279276,4200,"AUTOGOMA BERNAL S A","SN ARG",,"ZAPIOLA 515",1876,"BERNAL","AR",,,,30555752675,"30-55575267"
20279274,4200,"MOVILMAT S.A.","SN ARG",,"VELEZ SARSFIELD 2359",1640,"MARTINEZ ","AR",,,,30576197183,10000000000
20279280,4200,"MARTINI OSCAR ALBERTO","SN ARG",,"PEDRO LAGRAVE 311",1629,"CAPITAL FEDERAL","AR",,,,20047450226,"20-04745022"
20279279,4200,"LEXTRAL S R L","SN ARG",,"CALLE 22",1650,"SAN MARTIN","AR",,,,30502821403,"30-50282140"
20279277,4200,"ESTABLECIMIENTOS ELECTROMECANICOS M","SN ARG",,"ROSALES 2620",1636,"OLIVOS","AR",,,,30568794296,
20279281,4200,"LABTESA LABORATORIOS TERMOIONIC S A","SN ARG",,"BRANDSEN 2921/33",1702,"CAPITAL FEDERAL","AR",,,,30583013608,"901-926974-"
20279285,4200,"DESLER S A","SN ARG",,"MORENO",1091,"CAPITAL FEDERAL","AR",,,,30655954089,9019902656
20279296,4200,"FABRIMATICA SA","SN ARG",,"AV VARELA 2966",1437,"CAPITAL FEDERAL","AR",41165355,,,30690627732,9011944888
20279292,4200,"GEODIS WILSON ARGENTINA SA","SN ARG",,"BOLIVAR 391 2º P",1066,"CAPITAL FEDERAL","AR",,,,30593435810,"901-962840-"
20279290,4200,"FEDERAL EXPRESS CORPORATION","SN ARG",,"AV. PIEDRABUENA 3660",1439,"CAPITAL FEDERAL","AR",,,,30594494187,"901-985759-"
20279304,4200,"TECMAR SOCIEDAD ANONIMA","SN ARG",,"G. MATTEOTI 64",7600,"MAR DEL PLATA SUR ","AR",,,,30676785473,"902-895457-"
20279309,4200,"GREGORUTTI & ASOCIADOS S.A.","SN ARG",,"PASAJE RUFINO 3031",1431,"CAPITAL FEDERAL","AR",,,,33677051669,"901-157307-"
20279310,4200,"AMERICAN CLEANING CENTER S.A.","SN ARG",,"HONORIO PUEYRREDON 6020",1631,"PILAR","AR",52525757,,,30690207660,
20279312,4200,"BIOMERIEUX ARGENTINA SA","SN ARG",,"ARIAS 3751",1430,"CAPITAL FEDERAL","AR",55555680,,,30694376432,9010214521
20279317,4200,"GENERALI CORPORATE CIA ARG DE SEGUR","SN ARG",,"RECONQUISTA 572",1003,"CAPITAL FEDERAL","AR",,,,30677290478,"901-913535-"
20279319,4200,"PREVENCION ECOLOGICA SRL","SN ARG",,"ADOLFO ALSINA 1433",1088,"CAPITAL FEDERAL","AR",,,,30637767336,"901-978637-"
20279324,4200,"MADROÑAL GRACIELA VIRGINIA","SN ARG",,"BELAUSTEGUI 2754 P.2 DTO E",1416,"CAPITAL FEDERAL","AR",,,,27142108114,"1035956-07"
20279323,4200,"UNIRROL SA","SN ARG",,"SAN LORENZO 3699",1636,"OLIVOS","AR",47111616,,,30707387595,
20279330,4200,"MUNICIPALIDAD DE ESCOBAR","DAN ARG",,"ESTRADA 599 - ESQUINA : ASBORNO",1625,"ESCOBAR","AR",0,,,33999034069,
20279329,4200,"ZURICH ARGENTINA COMPAÑÍA DE SEGURO","DAN ARG",,"CERRITO 1010",1010,"CABA","AR",0,,,30500049770,"901-910178-"
20279336,4200,"FRADEALCO S A","SN ARG",,"RUTA 4 ENTRE CAVOUR Y MARCONI",1849,"CLAYPOLE","AR",42681605,,,30602608790,"902-8831064"
20279347,4200,"ANALYTICAL TECHNOLOGIES S.A.","DAN ARG",,"KENNEDY JOHN F. 2840 P:10",1425,"CAPITAL FEDERAL","AR",45099000,,,30707967990,"901-058538-"
20279343,4200,"SINAX S.A","SN ARG",,"ROSARIO 2302",1606,"CARAPACHAY","AR",47569800,,,30501778407,9019190565
20279344,4200,"STM ARGENTINA S.A.","SN ARG",,"BETHARRAM 1171",1682,"VILLA BOSCH","AR",,,,30691558157,"901-904109-"
20279355,4200,"CAS INSTRUMENTAL SRL","SN ARG",,"IBERÁ 2990",1000,"CAPITAL FEDERAL","AR",,,,30615186631,"901-936242-"
20279351,4200,"BRONS Y SALAS SOC CIVIL","SN ARG",,"OLGA COSSETTINI 363",1107,"CAPITAL FEDERAL","AR",43197168,,,30599017433,
20279363,4200,"ESTABLECIMIENTO MECANICO GOBBI Y FU","SN ARG",,"GRAL. ARREDONDO 2580",1872,"SARANDI","AR",42052292,,,33504449799,"33-50444979"
20279364,4200,"TRECAP SRL","SN ARG",,"CASTRO 562",1217,"CAPITAL FEDERAL","AR",,,,30709068306,"901-207636-"
20279376,4200,"ETILFARMA S A","SN ARG",,"INT. TOMKINSON 1278",1642,"SAN ISIDRO","AR",47426034,,,30618289318,
20279381,4200,"SIX SOFT S R L","SN ARG",,"AV CALLAO 493 P 5TO C",1022,"CAPITAL FEDERAL","AR","15 57307081",,,30709513989,
20279410,4200,"HARDOY, MACKINLAY & DELACRE - ABOGA","SN ARG",,"MONTEVIDEO 665 P 4",1019,"CAPITAL FEDERAL","AR",50323737,,,30710738471,"901-309656-"
20279430,4200,"CRIPTEX S.A.","SN ARG",,"COLECTORA OESTE KM 43.500",1623,"INGENIERO MASCHWITZ","AR",,,,30710014953,"30-71001495"
20279465,4200,"BAGAGGIO S.R.L.","SN ARG",,"CORDOBA 4261",1414,"CAPITAL FEDERAL","AR",48674519,,,30712437452,
20279462,4200,"CUEVA ANA MARIA","SN ARG",,"PERU 327 P 2 DPTO C",1067,"CAPITAL FEDERAL","AR",,,,27110998681,"27-11099868"
20279457,4200,"BULONERA TORCUATO S.R.L.","SN ARG",,"RUTA 202 3235",1611,"DON TORCUATO","AR",47412480,,,30622567519,"902-878565-"
20279486,4200,"MARTA B ARISI","SN ARG",,"SARMIENTO 1190 - 4TO. PISO",1041,"CAPITAL FEDERAL","AR",,,,27055955730,
20279501,4200,"BAKER & MC KENZIE","SN ARG",,"AV. LEANDRO N. ALEM 1110",1001,"CAPITAL FEDERAL","AR",,,,30661020985,"889242-03"
20279505,4200,"ADEA ADMINISTRADORA DE ARCHIVO","SN ARG",,"AVDA JURAMENTO 1775 PISO 4",1428,"CAPITAL FEDERAL","AR",,,,30682335706,9011694457
20279508,4200,"CAFADYA","SN ARG",,"AV. CORDOBA 1345 9º P.",1055,"CAPITAL FEDERAL","AR",,,,30639655802,
20279516,4200,"JORGE A. ESSES","SN ARG",,"AV. PUEYRREDON 524",1032,"CAPITAL FEDERAL","AR",,,,20075994304,
20279535,4200,"MARIEN KAFER S.R.L.","SN ARG",,"DARDO ROCHA 3126",1640,"MARTINEZ","AR",47172349,,,30711324034,
20279630,4200,"ROBERTO JAVIER GUZZO","SN ARG",,"CEFERINO NAMUNCURA 330",1625,"ESCOBAR","AR",,,,20219563540,9024551870
20279672,4200,"QUIMICA FENIX SA","SN ARG",,"AVDA DORREGO 279",1414,"CAPITAL FEDERAL","AR",,,,30702955285,9010323499
20279675,4200,"FABERTEC SRL","SN ARG",,"SAN JUAN 1950 P 10º",1232,"CAPITAL FEDERAL","AR",,,,30613482047,"901-936873-"
20279673,4200,"C.I.P.O.","SN ARG",,"GRAL SAVIO Y EINSTEIN",1619,"GARIN","AR",,,,30577727658,
20279674,4200,"ORENGIA Y CONFORTI ICSA","SN ARG",,"AZUCENA MAIZANI Nº 2300",7600,"MAR DEL PLATA SUR ","AR",,,,30502989037,"902-895214-"
20279676,4200,"SANDRA BEATRIZ PAZ BAGNI","SN ARG",,"OLAZABAL 2170",1428,"CAPITAL FEDERAL","AR",,,,27164863609,"27-16486360"
20279677,4200,"LABCI","SN ARG",,"PJE LOS RECUERDOS 347",1408,"CAPITAL FEDERAL","AR",,,,27062066275,"901-030800-"
20279678,4200,"BIODATA","SN ARG",,"9 DE JULIO 374",1878,"QUILMES","AR",,,,20116837669,"902-879809-"
20279679,4200,"AFIP / DGI","SN ARG",,"YRIGOYEN HIPOLITO 370 P:4 DEP:4752",1086,"CAPITAL FEDERAL","AR",,,,33693450239,
20279681,4200,"MASTROBERTI MIGUEL ANGEL","SN ARG",,"BOGOTA 1041",1629,"PILAR","AR",,,,20130271937,"20-13027193"
20279682,4200,"CÁMARA DE COMERCIO ARG. BRASIL","SN ARG",,"MONTEVIDEO 770 - P 12",1000,"CAPITAL FEDERAL","AR",,,,30525522691,
20279686,4200,"MULTIVAC ARGENTINA SA","SN ARG",,"USPALLATA 2665",1643,"BECCAR","AR",,,,30710091303,
20279688,4200,"SUEIRO E HIJOS SA","SN ARG",,"BERGAMINI 1127",1702,"CIUDADELA ","AR",44884649,,,30710855141,
20279689,4200,"MARIEN-K","SN ARG",,"DARDO ROCHA 3118",1640,"CAPITAL FEDERAL","AR",,,,27024735473,"902-554522-"
20279690,4200,"EME SALUD S. A.","SN ARG",,"SAN MARTÍN 1",1625,"ESCOBAR","AR",,,,30680113943,"902-129567-"
20279691,4200,"PAN HNOS TRANSPORTES S.R.L.","SN ARG",,"LIBERTAD 5024",1602,"FLORIDA","AR",,,,30655382344,
20279693,4200,"PRO-FACE SRL","SN ARG",,"ROQUE PÉREZ 211/15",1870,"AVELLANEDA","AR",,,,33612196899,"902-882272-"
20279694,4200,"LEIVA LUIS JORGE","SN ARG",,"PTE PERON 89 GARIN BS AS",1619,"GARIN","AR",3484477260,,,20101114679,2101114679
20279696,4200,"PERKIN ELMER ARGENTINA SRL","SN ARG",,"TRONADOR 620",1427,"CAPITAL FEDERAL","AR",,,,30692289249,"901-196457-"
20279698,4200,"THE SOLAE COMPANY","SN ARG",,"HIPÓLITO YRIGOYEN 2020 - P",1643,"CAPITAL FEDERAL","AR",,,,30695556469,
20279701,4200,"RESISTENCIAS ELECTROARGENTINAS","SN ARG",,"PARANA 4031",1640,"MARTINEZ","AR",,,,30709797030,"902-491357-"
20279700,4200,"NEOTEC MECANIZADOS","SN ARG",,"LAPRIDA 540 E/ EMILIO LAMARCA",1611,"DON TORCUATO NORTE","AR",,,,30709400998,"30-70940099"
20279703,4200,"IMTECK ARGENTINA SA","SN ARG",,"CALLE 103 Nº 4750",1653,"CAPITAL FEDERAL","AR",,,,30708149213,"901-062858-"
20279704,4200,"DE PIETRO VIDRIOS SH","SN ARG",,"ITALIA 1613",1648,"TIGRE","AR",,,,30678499540,"30-67849954"
20279707,4200,"YARADE HECTOR ALFREDO","SN ARG",,"COLOMBRES 280",1832,"CAPITAL FEDERAL","AR",,,,20120009193,"902-136089-"
20279708,4200,"TECNISOUND","SN ARG",,"SARMIENTO 1638",1042,"CAPITAL FEDERAL","AR",,,,30691551292,"901-189838-"
20279709,4200,"ELECTRICIDAD MIGUEL SA","SN ARG",,"LAVALLE 567",2800,"ZARATE","AR",,,,30576455352,"30-57645535"
20279710,4200,"BAC-DALL ARGENTINA SA","SN ARG",,"GRAL. J.G. ARTIGAS 1560",1416,"CAPITAL FEDERAL","AR",,,,30707999558,"901-059241-"
20279712,4200,"RAPI-ESTANT S.A.I.C.F.EL","SN ARG",,"A. MAGARIÑOS CERVANTES 2541/57",1416,"CAPITAL FEDERAL","AR",,,,30506291433,"901-911823-"
20279714,4200,"SERVICIOS INT POSTALES SA","SN ARG",,"SULLIVAN 3208",1667,"TORTUGUITAS","AR",,,,30708140488,"901-062662-"
20279716,4200,"HECTOR ROLDAN SA","SN ARG",,"AV. EVA PERÓN 3491",1650,"CAPITAL FEDERAL","AR",,,,30710587279,"901-274100-"
20279715,4200,"DANILUK MARCELO ALEJANDRO","SN ARG",,"AV DE MAYO 1370",1825,"CAPITAL FEDERAL","AR",,,,20230869368,"902-394481-"
20279717,4200,"AB CONSULTORA SA","SN ARG",,"CALIFORNIA 2082",1289,"CAPITAL FEDERAL","AR",43030000,,,30708480904,3070848090
20279718,4200,"DESBA SA","SN ARG",,"AV NAZCA 2566",1417,"CAPITAL FEDERAL","AR",,,,30711736103,"901-313111-"
20279719,4200,"HIDRAULICA Y COMPONENTES SRL","SN ARG",,"ACCESO NORTE 3050",1644,"CAPITAL FEDERAL","AR",,,,30710051492,"901-228890-"
20279721,4200,"LEIVA OSCAR FERNANDO","SN ARG",,"JUAN B. JUSTO 1463",1643,"CAPITAL FEDERAL","AR",,,,20077004662,
20279720,4200,"BUSCH ARGENTINA SRL","SN ARG",,"SANTO DOMINGO 3078",1293,"CAPITAL FEDERAL","AR",,,,33710648919,
20279725,4200,"BOTTA TORRES PEDRO","SN ARG",,"REP. ARABE SIRIA 3211",1425,"CAPITAL FEDERAL","AR",,,,20332071387,
20279726,4200,"POLINORTE SA","SN ARG",,"M. UGARTE 3871",1605,"MUNRO","AR",47622709,,,30646811062,9019616919
20279730,4200,"MARCELO ALEJANDRO GIORNO","SN ARG",,"SANABRIA 2621 CAP FED",1417,"CAPITAL FEDERAL","AR",46392245,,,20230368636,9010744332
20279731,4200,"SOLDADURAS TIGRE DE CASCASI Y","SN ARG",,"GUAMINI 1152",1408,"CAPITAL FEDERAL","AR",46990468,,,30712193944,9016613553
20279732,4200,"SOTIC SA","SN ARG",,"CALLE 9 PARQUE IND SAUCE VIEJO",3017,"SANTA FE","AR",3424996301,,,30567590867,9217407957
20279734,4200,"LUIS ALBERTO OLMOS","SN ARG",,"ROJAS 1408- BURZACO",1852,"CAPITAL FEDERAL","AR",42995856,,,20113672111,9028856081
20279736,4200,"CARPE SHEIDER Y CIA SA","SN ARG",,"GODOY CRUZ 2769 5TO.",1425,"CAPITAL FEDERAL","AR",47760477,,,30624460444,9010297598
20279738,4200,"TALLER METALURGICO DE ARIEL AR","SN ARG",,"ECHEVERRÍA 2501",1650,"PCIA BS AS","AR",,,,20256873711,2025687371
20279741,4200,"HUGO SANDRO ZINK","SN ARG",,"REMEDIOS DE ESCALADA 799",1625,"CAPITAL FEDERAL","AR",1554516817,,,20200184484,
20279740,4200,"FEPROL SRL","SN ARG",,"AZURDUY JUANA 3675",1430,"CAPITAL FEDERAL","AR",45450681,,,30708412208,9017239931
20279743,4200,"KAS SECTOR RRHH","SN ARG",,"AV. PANAMERICANA Y GRAL. SAVIO",1619,"GARIN","AR",,,,27324727758,
20279745,4200,"KAS-R&D","SN ARG",,"AV. PANAMERICANA Y GRAL. SAVIO",1619,"GARIN","AR",,,,,
20279744,4200,"KAS COMEX","SN ARG",,"AV. PANAMERICANA Y GRAL. SAVIO",1619,"GARIN","AR",,,,,
20279746,4200,"KAS FONDO FIJO","SN ARG",,"AV. PANAMERICANA Y GRAL. SAVIO",1619,"GARIN","AR",,,,,
20279747,4200,"KAS FONDO FIJO DEPOSITO","SN ARG",,"AV. PANAMERICANA Y GRAL. SAVIO",1619,"GARIN","AR",,,,,
20279748,4200,"KAS VARIOS","SN ARG",,"AV. PANAMERICANA Y GRAL. SAVIO",1619,"GARIN","AR",,,,,
20279754,4200,"PALLETS FEGIAN S.A.","SN ARG",,"LAS HIGUIERITAS 548",1824,"LANUS","AR",,,,30712197222,"30-71219722"
20279757,4200,"TERMOLOSANDES S.R.L.","SN ARG",,"REPUBLICA ARABE SIRIA 3215",1425,"CAPITAL FEDERAL","AR","4 911 4835",,,30708823577,"901-079286-"
20279763,4200,"KEISER GROUP SRL","SN ARG",,"MARIANO ESCALADA 1002",1684,"EL PALOMAR","AR",,,,30713827904,
20279766,4200,"ACEROS Y ALUMINIOS QUEQUEN SRL","SN ARG",,"JOSE PEDRO VARELA 5377",1408,"CAPITAL FEDERAL","AR",,,,30516886710,
20279774,4200,"TODOS RETENES SA","SN ARG",,"AV. LAS MALVINAS 6477",5012,"CORDOBA","AR",,,,30714333948,
20279788,4200,"IMATECSA SA","SN ARG",,"GUEVARA 1333",1427,"CAPITAL FEDERAL","AR",,,,30712246495,
20279780,4200,"GAIA ECOCONSULTORES SRL","SN ARG",,"SARMIENTO 385 3° DTO 36",1041,"CAPITAL FEDERAL","AR",,,,33680423909,"902-0859149"
20279775,4200,"LAS LUNAS SERVICIOS PARA MASCOTAS","SN ARG",,"AVENIDA ANDRES ROLON 100",1642,"SAN ISIDRO","AR",47237300,,,30709593192,"902-850828-"
20279799,4200,"JOHANNA MESA ALPERT","SN ARG",,"WINEBERG 3582",1637,"LA LUCILA","AR",,,,27308208430,
20279817,4200,"CUBEN S.A","SN ARG",,"AV. FRANCISCO BEIRO 4388",1419,"CAPITAL FEDERAL","AR",,,,30709886904,
20279826,4200,"IGLESIAS NEGOCIOS INMOBILIARIOS SA","SN ARG",,"BVAR DEL MIRADOR 350",1871,"NORDELTA","AR",,,,33710896459,"33-71089645"
20279833,4200,"CABRERA SEBASTIAN EMILIO","SN ARG",,"COLOMBRES 44",1177,"CAPITAL FEDERAL","AR",,,,20227079496,
20279838,4200,"CARLEY S.A.","DAN ARG",,"AV NAZCA 867 PISO 5 DTO A",1406,"CAPITAL FEDERAL","AR",,,,30709145572,"30-7091455-"
20279839,4200,"CANDY CHOC S.A","SN ARG",,"ROMA 185",1000,"HURLINGHAM","AR",,,,30709212105,"901-211122-"
20279844,4200,"SENN DARIO ALEJANDRO","SN ARG",,"JUNCAL 79",1640,"MARTINEZ","AR",561763035,,,20283073093,"20-28307309"
20279867,4200,"TRANSPORTE JOVEN S.R.L.","SN ARG",,"DARRAGUEIRA 1475",1822,"VALENTIN ALSINA","AR",42098667,,,30710700350,9025373430
20279877,4200,"CHEF GOURMET SA","SN ARG",,"CUYO 2260",1640,"MARTINEZ","AR",47172054,,,30712305483,9016685911
20279882,4200,"CANAVIDE HECTOR ALEJANDRO","SN ARG",,"CAPITAL SARMIENTO 570",1828,"BANFIELD","AR",43427040,,,20214522927,20214522927
20279886,4200,"LOMA CAROLINA VIRGINIA","SN ARG",,"SANTIAGO DEL ESTERO 690",1623,"INGENIERO MASCHWITZ","AR",4445833,,,27232483623,2723248362
20279898,4200,"VELOCE LOGISTICA S.A.","SN ARG",,"PARAMERICANA KM 37",1519,"GARIN","AR",,,,33711034299,
20279897,4200,"MGP LOGISTICS S.R.L.","SN ARG",,"DOLORES PRATS 1960",1706,"HAEDO NORTE","AR",60791956,,,30712333150,9016721912
20279900,4200,"LAZZARINO MARIANA","SN ARG",,"DARRAGUEIRA 1551",1714,"ITUZAINGO","AR",,,,27205930138,
20279903,4200,"PNEUMATIC SCALE ANGELUS","SN ARG",,"10 ASCOT PARKWAY",44223,"CUYAHOGA FALLS","US",13309230491,,,55000002126,
20279921,4200,"FERRARO Y ASOCIADOS S.R.L.","SN ARG",,"CALLE 9 ENTRE 8 Y 10 1761",1629,"PILAR","AR",,,,30708403969,9028109905
20279925,4200,"SILVIA GRACIELA GARCIA","SN ARG",,"SALVADOR SOREDA 6032",1875,"WILDE","AR",1126554037,,,27171037390,
20279926,4200,"MATCON LTD","SN ARG",,"BRAMLEY DRIVE, VALE PARK",111,"EVESHAM","GB",,,,55000004269,
20279940,4200,"EL POLITECNICO SOCIEDAD ANONIMA","SN ARG",,"SARMIENTO 820",1041,"CAPITAL FEDERAL","AR",,,,30558263101,30558263101
20279941,4200,"LANG DIEGO FEDERICO","SN ARG",,"BRANDSEN 527",1646,"SAN FERNANDO","AR",,,,20175382632,
20279950,4200,"TALLERES IPAM HNOS S.R.L","SN ARG",,"ZUVIRIA 1931 P:PB",1663,"SAN MIGUEL","AR",,,,30715069659,30715069659
20279965,4200,"BIANCHI SERGIO OMAR","SN ARG",,"MORIONDO 3721",1674,"SAENZ PENA","AR",,,,20160982579,20160982579
20279961,4200,"DAIMAX SA","SN ARG",,"VILLARROEL 5969",1653,"VILLA BALLESTER","AR",,,,30714117293,30714117293
20279956,4200,"ENVAPLAST S R L","SN ARG",,"MENDOZA D PEDRO 2887",1294,"CAPITAL FEDERAL","AR",,,,30586347760,30586347760
20279967,4200,"EMERGENCIAS MEDICAS ESCOBAR S.A.","SN ARG",,"LAPRIDA 248",1625,"ESCOBAR","AR",,,,30715322400,30715322400
20279980,4200,"ATRIX S.A.","SN ARG",,"MISIONES 314",5000,"CAPITAL FEDERAL","AR",4234385,,,30711995184,
20279983,4200,"ESTRUCPLAN CONSULTORA S.A.","SN ARG",,"AV. RIVADAVIA 18451 1ºA",1708,"MORON","AR",,,,30683844388,"902-3068384"
20280011,4200,"ALARALAB S.A.","SN ARG",,"CRISOSTOMO ALVAREZ 5515",1439,"CAPITAL FEDERAL","AR",1146017036,,,30710380216,9012693361
20280016,4200,"QUIERO SA","SN ARG",,"MUNICH 1751",1428,"CAPITAL FEDERAL","AR",47880032,,,33709650489,
20280029,4200,"G D G INGENIERIA SRL","SN ARG",,"SOLIS 7836",7600,"MAR DEL PLATA","AR",4826393,,,30709240141,30709240141
20280032,4200,"HICA INTEGRADA S.R.L.","SN ARG",,"CALLE 214 N-679",1886,"BERAZATEGUI","AR",42583315,,,30710046715,30710046715
20280033,4200,"LOZA LEANDRO LUIS","SN ARG",,"JUAN B JUSTO 1272",1643,"BECCAR","AR",47434339,,,20329914292,20329914292
20280035,4200,"FARMACIA SAN PEDRO SCS","SN ARG",,"AV CABILDO 799",1426,"CAPITAL FEDERAL","AR",45831097,,,30541679991,
20280039,4200,"LUXLAND SRL","SN ARG",,"CERRITO 1070 P 6 DTO103",1010,"CAPITAL FEDERAL","AR",47846946,,,30715218190,30715218190
20280037,4200,"GUELAR FACUNDO","SN ARG",,"WASHINGTON 4095",1430,"CAPITAL FEDERAL","AR",57987171,,,20234711688,153545211
20280040,4200,"JMC CAÑERIAS S.R.L","SN ARG",,"AZCUENAGA 4071",1882,"ESPELETA","AR",42162797,,,30714808326,30714808326
20280043,4200,"INGO AMERICA INGENIERIA Y OBRAS S.A","SN ARG",,"BOGOTA 915",1640,"MARTINEZ","AR",47170087,,,30715487523,30715487523
20280045,4200,"DESIMONE CLAUDIO ANDRES","SN ARG",,"RAWSON Nº5875",7600,"MAR DEL PLATA","AR",4771831,,,20184545137,20184545137
20280046,4200,"PRINEL S.R.L.","SN ARG",,"PRESIDENTE DERQUI 1061",1824,"LANUS","AR",42499667,,,30645040259,
20280047,4200,"ESTABLECIMIENTO METALURGICO OLIVEIR","SN ARG",,"CALLE 39 1553",1650,"SAN MARTIN","AR",47557956,,,30709477400,30709477400
20280048,4200,"CONTUCO S.R.L.","SN ARG",,"DEAN FUNES 2097",1244,"CAPITAL FEDERAL","AR",47561676,,,30715006789,"30-71500678"
20280050,4200,"TECNOPRACTICA S.A.","SN ARG",,"ALFEREZ HIPOLITO BOUCHARD 4857",1606,"CARAPACHAY","AR",47653335,,,30593919931,"901-954673-"
20280051,4200,"DINORTE INSTRUMENTAL S.A.","SN ARG",,"BLANCO ENCALADA 5619",1431,"VILLA URQUIZA","AR",45234393,,,30715080962,
20280063,4200,"BERBENTANA GUSTAVO JAVIER","SN ARG",,"CABO OSCAR LABALTA 635",3260,"CONCEPCION DEL URUGU","AR",443569,,,23274256559,
20280058,4200,"SOLANA DE ESCOBAR SA","SN ARG",,"SANCHEZ DE BUSTAMANTE 2317 2°B",1425,"CAPITAL FEDERAL","AR",4420665,,,30619053571,9019468387
20280075,4200,"ENFRIADORES Y ACONDICIONADORES S.R.","SN ARG",,"BOMBEROS VOLUNTARIOS 467",1619,"GARIN","AR",4477755,,,30715602845,30715602845
20280080,4200,"J ENGELSMANN AG","SN ARG",,"FRANKENTHALER STR. 137 - 141",67059,"LUDWIGSHAFEN","DE",590020,5900276,,55000004005,
20280093,4200,"PONS MIGUEL BELISARIO","SN ARG",,"MARIANO ACOSTA 1768",1672,"VILLA LYNCH","AR",1538294195,,,20148839256,"20-14883925"
20280094,4200,"ELECTROAUT. Y MONTAJES INDUST. BETA","SN ARG",,"VIAMONTE 376",2804,"CAMPANA","AR",15590346,,,30711647178,6442556
20280096,4200,"MONTAJES LAM ARGENTINA SRL","SN ARG",,"ERNESTO RODRIGUEZ 325",1865,"SAN VICENTE","AR",25424650,,,30715582585,5334034
20280109,4200,"BUENOS AIRES VENDING S.A.","SN ARG",,"AV. INDEPENDENCIA 1330 13º1",1100,"CAPITAL FEDERAL","AR",47942200,,,30661928510,9011783657
20280111,4200,"LOGISTICA LOSADA S.A.","SN ARG",,"GRAL. SPIKA 1649",1279,"CAPITAL FEDERAL","AR",43016447,,,30707268863,
20280126,4200,"MEDICINA INTEGRAL FITZ ROY S.A","DAN ARG",,"ACEVEDO 865",1414,"CABA","AR",47785500,,,30707842330,30707842330
20280128,4200,"BLANCO MATIAS GABRIEL","SN ARG",,"MARIANO MORENO 5481",1678,"CASEROS","AR",1561809763,,,20335578741,20335578741
20280133,4200,"VAZQUEZ ADRIAN GUSTAVO Y VAZQUEZ SA","SN ARG",,"DIAZ VELEZ 3631",1744,"MORENO","AR",44551189,,,30666510719,30666510719
20280145,4200,"PALMISANO MARIA LAURA","SN ARG",,"EUGENIO GARZÓN 3428",1406,"CAPITAL FEDERAL","AR",64959847,,,27352078994,
20280147,4200,"EUROFINS CLF","SN ARG",,"PROFESSOR-WAGNER-STRAßE 11",61381,"FRIEDRICHSDORF","DE",617217970,,,"DE204952253",
20280159,4200,"NUMIL GIDA ÜRÜNLERI SANAYI VE TICAR","SN ARG",,"LEVENT MAH. C. SOK. YAPI K. PLAZA",34330,"ISTANBUL","TR",2123852600,,,2310001525,
20280171,4200,"DE LOS SANTOS JUAN MANUEL","SN ARG",,"MEDRANO 340",1828,"BANFIELD","AR",42423874,,,20334197175,
20280186,4200,"FUNDACION DEL SUR PARA EL DESARROLL","SN ARG",,"12 DE OCTUBRE 1842",8000,"BAHIA BLANCA","AR",4882541,,,30580003970,30580003970
20280212,4200,"CITACO SRL","SN ARG",,"GENERAL PINTO 811",1646,"SAN FERNANDO","AR",47462686,,,30686158175,90211781108
20280208,4200,"GRUPO ODIM S.A.","SN ARG",,"AV CASTEX 1257",1804,"CANNING","AR",50750020,,,30708183071,"901-063486-"
20280207,4200,"MIL EQUIPOS S.A.","SN ARG",,"HIPOLITO YRIGOYEN 3621",1650,"SAN MARTIN","AR",47240124,,,30715242229,"901-3071524"
20280219,4200,"DALY, OTERO, FLÓREZ & NÚÑEZ DEL PRA","SN ARG",,"RIO DE LA PLATA 167, OFICINA 201",1000,"LIMA","AR",16156666,,,20555876123,
20280222,4200,"SANCHEZ HERNAN DANIEL","SN ARG",,"PANAMERICANA RAMAL PILAR 0 KM: 36.5",1667,"ESCOBAR","AR",4504995,,,20248490145,90220248490
20280225,4200,"LAGOS DEL DELTA SRL","SN ARG",,"AVENIDA DE LOS LAGOS 6855 LOCAL 1",1670,"TIGRE","AR",48715500,,,30708723904,
20280229,4200,"NORBERTO SPINELLI SRL","SN ARG",,"BACACAY 5775",1408,"CAPITAL FEDERAL","AR",46412224,,,30707977856,
20280245,4200,"TIANI ACRINOX SRL","SN ARG",,"NTRA SRA DE LA MERCED 5859",1678,"CASEROS","AR",47519734,,,30715155520,30715155520
20280252,4200,"ENTERLAB SRL","SN ARG",,"ROSALES 2616 P: 4 OFICINA: 2 OLIVOS",1636,"OLIVOS","AR",47945482,,,30716119277,30716119277
20280258,4200,"PRISMA ANALITICA SA","SN ARG",,"DR. LUIS AGOTE 3132 P.1ER. OF.C",1879,"QUILMES","AR",60790931,,,30711034400,
20280264,4200,"CETRANGOLO S.C.S.","SN ARG",,"HIPOLITO YRIGOYEN 2155",1602,"FLORIDA","AR",47076942,,,30715786644,
20280265,4200,"KARCHER SA","SN ARG",,"R PANAMERICANA COLEC. OESTE 28644",1611,"CAPITAL FEDERAL","AR",47485000,,,30710988516,
20280278,4200,"HAPPY KIDS SA","SN ARG",,"TACURI 342 P PB (1071)",1071,"CAPITAL FEDERAL","AR",43458004,,,30649405375,
20280306,4200,"VALORA SA","SN ARG",,"SAN MARTIN 66 P 4",1004,"CAPITAL FEDERAL","AR",58134199,,,30617213083,
20280312,4200,"EDUARDO BOLO BOLAÑO","SN ARG",,"AVENIDA CAZON 1416",1648,"TIGRE","AR",47490072,,,20055258504,6437938
20280313,4200,"SAGARRA DANIEL HERNAN","SN ARG",,"LA MERCED 323",1925,"ENSENADA","AR",469372,,,20248922231,
20280332,4200,"CIENTIFICA AVELLANEDA SRL","SN ARG",,"FREIRE 169 P Y",1868,"AVELLANEDA","AR",42089920,,,30710621418,"902-6262161"
20280315,4200,"ALIMENTOS FRAY BENTOS S.A","SN ARG",,"R 2 Y 24, ACC. PUERTO M'BOPICUÁ KM5",65000,"FRAY BENTOS","UY",45628100,0,,216730580015,
20280333,4200,"NOBI SRL","SN ARG",,"MORLOTE 940",1427,"CAPITAL FEDERAL","AR",45230132,,,33713119909,126316211
20280336,4200,"COMP ARGENTINA DE NAVEGACION DODERO","SN ARG",,"1225 MALAGA AVE",3134,"CAPITAL FEDERAL","AR",57005173,,,30506930290,30506930290
20280338,4200,"EL HOTEL PILAR SA","DAN ARG",,"RUTA 8 KM 60.5",1633,"FATIMA","AR",2304503800,,,30712292268,30712292268
20280342,4200,"MOSTEIRO SERGIO ARIEL","SN ARG",,"BECERRA 837 CAMPANA BUENOS AIRES",2804,"CAMPANA","AR",425894,,,20144049587,"20-14404958"
20280351,4200,"KHALIL SILVIA ALDANA","SN ARG",,"GALLARDO 835 - P:PB - DEP:2",1408,"CAPITAL FEDERAL","AR",46719296,,,27285047167,"27-28504716"
20280371,4200,"DESIGN PHARMA SRL","SN ARG",,"CORVALAN 1541, MARTINEZ",1640,"MARTINEZ","AR",1541770780,,,30715612034,
20280370,4200,"DIAGNOSTICO LABORAL PILAR S.A.","SN ARG",,"AV. TOMAS MARQUEZ 1061",1629,"PILAR","AR",4663377,,,30709881856,
20280379,4200,"GRUPO HENTEX","SN ARG",,"ARTIGAS JOSE G. 2657",1417,"CAPITAL FEDERAL","AR",47150825,,,30716681234,30716681234
20280373,4200,"OMNI SALUD SA","SN ARG",,"AMENABAR 1179 1ª B",1426,"CAPITAL FEDERAL","AR",55509200,,,30708693444,"901-986305-"
540001490,4200,"GRECO PABLO ANDRES",,,"MORENO 877",1091,,"AR",,,,20251304352,
20194082,4200,"RICHELET & RICHELET","SN ARG",,"RECONQUISTA 672 P 7",1003,"CAPITAL FEDERAL","AR",541143130184,,,30528348994,10949603
20195038,4200,"MARVAL & O FARRELL","SN ARG",,"AV. LEANDRO N. ALEM 928",1001,"CAPITAL FEDERAL","AR",,,,30529278566,9019134000
20200434,4200,"ASCOLI SUSANA","SN ARG",,"AV. SAN JUAN 4362",1233,"CAPITAL FEDERAL","AR",49230252,,,27104604582,
20201454,4200,"SEGUFER SA","SN ARG",,"TOLL 2875 - VELEZ SARFIELD",1280,"CAPITAL FEDERAL","AR",55525555,,,30678145366,10000000000
20201578,4200,"AUTING S.R.L.","SN ARG",,"91 N° 1031",1672,"VILLA LYNCH","AR",,,,30707943137,9027927650
20201591,4200,"NUTRITIA S.R.L.","SN ARG",,"DARDO ROCHA 1350 LOCAL 2",1060,"MARTINEZ","AR",,,,30708773170,9016169922
20201610,4200,"DEBERNARDI AGUERO MARIA INES","SN ARG",,"AV LAS HERAS 1972 P 3 DTO B",1127,"CAPITAL FEDERAL","AR",,,,27259675273,27259675273
20201628,4200,"SIGMA ALDRICH DE ARGENTINA S.A.","SN ARG",,"ESTOMBA 835",1427,"CAPITAL FEDERAL","AR",,,,30693136802,9010210896
20201641,4200,"KARINA SCOMAZZÓN EDITH","SN ARG",,"LAS LILAS 8 ENTRE LOS JACARANDAES",1832,"LOMAS DE ZAMORA","AR",42830004,,,27253143202,9028450026
20201652,4200,"AUMECON SA","SN ARG",,"ACASUSSO 4768",1605,"MUNRO","AR",,"4 762 6331",,30709860840,9024939349
20201849,4200,"NEWLAND CHASE ARGENTINA SRL","SN ARG",,"AV EDUARDO MADERO 1020",1106,"CAPITAL FEDERAL","AR","4 872 8185",,,30712481397,30712481397
20201910,4200,"ECOTRADE SRL","SN ARG",,"DEFENSA 441 P 3 DPTO A",1065,"CAPITAL FEDERAL","AR",43317005,,,30707822127,9010558069
20202177,4200,"CAJA DE SEGUROS SA","SN ARG",,"FITZ ROY 957",1414,"CAPITAL FEDERAL","AR",48578469,,,30663205621,
20202078,4200,"COLEGIO DE DIETISTAS NUTRIONISTAS D","SN ARG",,"BUENOS AIRES 631",4400,"SALTA","AR",,,,30707195785,30707195785
20203251,4200,"STORAGE COMPAT SA.","SN ARG",,"COLECTORA OESTE KM 47.5",1625,"ESCOBAR","AR",4424123,,,30711871485,"901-646694-"
20203320,4200,"GESTION BUENOS AIRES S.A","SN ARG",,"CHACABUCO 1386",1140,"CAPITAL FEDERAL","AR",43003100,,,30709019941,9019969613
20209072,4200,"BOREAL TECHNOLOGIES S.A.","SN ARG",,"11 DE SEPTIEMBRE 4717",1429,"CAPITAL FEDERAL","AR",53530303,,,30708194103,9018636712
20205631,4200,"TRISCIUZZI FERNANDO ANDRES","SN ARG",,"EMILIO MITRE 425 PB 1",1424,"CAPITAL FEDERAL","AR",1158090101,,,20227096315,20227096315
20214501,4200,"LA CAPRA DYLAN DANIEL","SN ARG",,"Nicasio Oroño 6045",1875,"WILDE","AR",1132119446,,,20409162895,
20218072,4200,"DELOITTE & CO. S.A.","SN ARG",,"FLORIDA 234",1005,"CAPITAL FEDERAL","AR",43202700,,,30526124916,
20219746,4200,"RUIZ ALEJO ELIAS","SN ARG",,"Ramella 926",1876,"BERNAL","AR","011 42526454",,,20412354517,
20226262,4200,"MERCOVAN ARGENTINA SRL","SN ARG",,"JUANA AZURDUY 1520 P 3 OF. E",1429,"CAPITAL FEDERAL","AR",45764201,,,30676026726,"901-5544263"
20226291,4200,"FIXPOINT S.R.L.","SN ARG",,"FRANCISCO N LAPRIDA 4722",1603,"VILLA MARTELLI","AR",52903030,,,30714994316,
20231161,4200,"AON SOLUCIONES S.A.","SN ARG",,"DE LA BARRA,EMMA 353 P:06",1107,"CAPITAL FEDERAL","AR",43387859,,,30582426054,9395221
20235985,4200,"Q SOLUTIONS SA","SN ARG",,"Boedo 71",1876,"BERNAL","AR",1152722942,,,33712503829,90233712503
20233959,4200,"ROBOCLEAN S.R.L","SN ARG",,"Argentina 2314",1704,"RAMOS MEJIA","AR",1144414082,,,30715225952,90230715225
20237142,4200,"PROVINTEX S.R.L","SN ARG",,"JOSE CUBAS 3714",1419,"CAPITAL FEDERAL","AR","4758 0450",,,30714477362,30714477362
20238470,4200,"JOAQUIN ESTEBAN URRESTI","SN ARG",,"tucumal 1321",1050,"CAPITAL FEDERAL","AR",1143753064,,,20273115928,
20238690,4200,"BUREAU VERITAS ARGENTINA S.A.","SN ARG",,"ALEM LEANDRO N. AV. 855 PISO:2",1001,"CABA","AR",,,,33658043779,"901-987391-"
20243287,4200,"LOGISTICA SAONA SRL","SN ARG",,"Balcarce 381 10 A",1064,"CAPITAL FEDERAL","AR",43313702,,,30713173602,
20243309,4200,"PICCOLI MARIA GIMENA","SN ARG",,"VTE LOPEZ Y PLANES 147",1748,"GENERAL RODRIGUEZ","AR",1162949373,,,27312415521,
20244497,4200,"INTEGRACION DE SERV. AMBIENTALES SA","SN ARG",,"MUÑIZ 1548 PB",1255,"CAPITAL FEDERAL","AR",,,,30708356952,"901-067370-"
20244507,4200,"GESTION LABORAL S.A.","SN ARG",,"LIMA 1111",1673,"CAPITAL FEDERAL","AR","4874 4600",,,30693231481,
20250643,4200,"OLCESE ROBERTO","SN ARG",,"3 DE FEBRERO 3291",3000,"SANTA FE","AR",4369009,,,20125651691,
20251452,4200,"ESTRUCTURAS CIENTÍFICAS S.A.","SN ARG",,"Chile 851-1 Piso-of 5",1098,"CABA","AR",,,,30710881363,
20251500,4200,"COLOSCHI GISELA PAOLA","SN ARG",,"LORIA 527 PISO 5 DTO A",1832,"LOMAS DE ZAMORA","AR",1560550838,,,27285851292,
20251510,4200,"VIDALES AMARANTA GABRIELA","SN ARG",,"EMILIO MITRE 457",1424,"CAPITAL FEDERAL","AR",,,,27297321566,"27-29732156"
20251555,4200,"PRUDENCIA COMPAÑIA ARGENTINA DE SEG","SN ARG",,"LAVALLE 579 P 8",1047,"CAPITAL FEDERAL","AR",43238700,,,30500043594,
20251512,4200,"LUI MARIA FERNANDA","SN ARG",,"AV. MONTES DE OCA 331",1270,"CAPITAL FEDERAL","AR",1554362007,,,27298591141,24298591141
20251558,4200,"CENTRO DE LA INDUSTRIA LECHERA","SN ARG",,"MEDRANO 281",1178,"CAPITAL FEDERAL","AR",,,,30500105492,
20251582,4200,"PEUGEOT CITROEN ARGENTINA S.A.","DAN ARG",,"PTE PERON 1001",1683,"VILLA BOSCH","AR",,,,30504744538,"901-913894-"
20251633,4200,"HUGO TORBIDONI Y COMPAÑIA SRL","SN ARG",,"DR NICOLAS REPETTO 1346",1416,"CAPITAL FEDERAL","AR","4 581 2123",,,30529760015,"901-918412-"
20251647,4200,"ELECTRICIDAD HAEDO S.A.C.I.F.I. Y A","SN ARG",,"MONSEÑOR DE ANDREA 86",1706,"HAEDO","AR",,,,30541304386,"902-869201-"
20251678,4200,"MARKEN COMERCIAL SA","SN ARG",,"CALIFORNIA 2082 3º 303",2082,"CAPITAL FEDERAL","AR",,,,30558735526,
20251684,4200,"CONTEMAN SA","SN ARG",,"MARTIN MIGUEL DE GUEMES 4718",1778,"CIUDAD EVITA","AR","4 638 8080",,,30566207377,"901-912608-"
20251728,4200,"SCHNEIDER ELECTRIC ARGENTINA SOCIED","SN ARG",,"AV. GRAL. SAN MARTIN 5020",1604,"FLORIDA","AR",,,,30592199544,"902-920168-"
20251757,4200,"KIMBERLY-CLARK ARGENTINA SOCIEDAD A","SN ARG",,"AV LIBERTADOR 498",1001,"CAPITAL FEDERAL","AR","4 321 5700",,,30609607935,"901-935809-"
20251794,4200,"MEDICA TEC SRL","DAN ARG",,"AV. TRIUNVIRATO 2789",1427,"CAPITAL FEDERAL","AR",,,,30624950468,"901-956390-"
20251793,4200,"CLINES S.A.","SN ARG",,"AV SAN MARTIN 3965",1417,"CAPITAL FEDERAL","AR","4521 8100",,,30624379094,"901-3062437"
20251831,4200,"NEOGEN ARGENTINA S.A.","SN ARG",,"THAMES 181 – CABA",1186,"CAPITAL FEDERAL","AR",,,,30643663445,"901-956696-"
20251855,4200,"COMASA S.A.","SN ARG",,"BELGRANO 2658",1617,"TALAR DE PACHECO","AR","4 726 3600",,,30648479375,"30-64847937"
20251875,4200,"ADECCO ARGENTINA S.A.","SN ARG",,"SARMIENTO 1712",1042,"CAPITAL FEDERAL","AR",,,,30656760172,"901-983927-"
20251871,4200,"EDENOR S.A.","SN ARG",,"AZOPARDO 1025",1025,"CAPITAL FEDERAL","AR",,,,30655116202,
20251900,4200,"INSUMAQ S R L","SN ARG",,"URIARTE 2465",1425,"CAPITAL FEDERAL","AR",,,,30662027983,
20251880,4200,"GAS NATURAL BAN S A","SN ARG",,"ISABEL LA CATOLICA 939",1269,"CAPITAL FEDERAL","AR",,,,30657864117,"901-987119-"
20252072,4200,"WATCHMAN SEGURIDAD S.A.","SN ARG",,"AV GARCIA DE RIO 3182",1429,"CAPITAL FEDERAL","AR",53686122,,,30707386068,
20252011,4200,"BIOARTIS SRL","SN ARG",,"SANABRIA 3221/19",1417,"CAPITAL FEDERAL","AR",,,,30696703058,"901-030684-"
20252099,4200,"CLEANFIX SA","SN ARG",,"BOLIVIA 2735",1678,"CASEROS","AR",47500203,,,30707706992,"1061263-07"
20252134,4200,"EXEMYS SRL","SN ARG",,"AV. JUAN B. JUSTO 4054",1416,"CAPITAL FEDERAL","AR",45857585,,,30708120207,
20252126,4200,"PIVAX SA","SN ARG",,"25 DE MAYO 1807",1650,"SAN MARTIN","AR","47 13 85 50",,,30708018135,"901-059633-"
20252175,4200,"BIOSEIF SRL","SN ARG",,"GUEMES 3416",1425,"CAPITAL FEDERAL","AR",47629914,,,30708436875,"901-212511-"
20252157,4200,"URSAN S.R.L.","SN ARG",,"RODRIGUEZ PEÑA 1049 P.2°",1020,"CAPITAL FEDERAL","AR",4944764,,,30708311150,
20252208,4200,"FABA EXPRES SA","SN ARG",,"AV. BELGRANO 510",1092,"CAPITAL FEDERAL","AR","4343 1328",,,30708784695,"901-077136-"
20252287,4200,"R-BIOPHARM LATINOAMERICANA SA","SN ARG",,"VUELTA DE OBLIGADO 2943",1429,"CAPITAL FEDERAL","AR",,,,30709415685,"901-215256-"
20252309,4200,"MARQUES DE OBRA S.R.L.","SN ARG",,"MARQUES DE AVILES 1160",1686,"HURLINGHAM","AR","4 452 8819",,,30709597104,
20252444,4200,"EK ROBOTER S.A","SN ARG",,"TRIUNVIRATO 2068",1754,"VILLA LUZURIAGA","AR",,,,30711127379,
20252388,4200,"NILFISK ADVANCE S.R.L.","SN ARG",,"URUGUAY 4798",1643,"BUENOS AIRES","AR","54 11 4737 1877",,,30710455739,"901-271076-"
20252447,4200,"AGNOSTIC SRL","SN ARG",,"RIVADAVIA 2499",1034,"CAPITAL FEDERAL","AR",,,,30711175659,30711175659
20252572,4200,"QUANTECH S.R.L.","SN ARG",,"33 ORIENTALES 527",1236,"CAPITAL FEDERAL","AR","4 931 6909",,,30714134422,"901-487203-"
20252690,4200,"TEAMBUILDERS S.R.L.","SN ARG",,"LAS CAMELIAS 3324 D 105",1664,"PILAR","AR",1158731239,,,30715502069,"084-000001-"
20252743,4200,"INDUTRA SOCIEDAD DE HECHO DE JULIO","SN ARG",,"INT.BOERS 1042/44 (CALLE 83)",1650,"SAN MARTIN","AR",,,,33641341679,9019540816
20252899,4200,"TEALDO CRISTINA MABEL","SN ARG",,"REMEDIOS DE ESCALADA 1824",1824,"LANUS","AR",,,,27130927799,27130927799
20252913,4200,"SEHIMA S.R.L.","SN ARG",,"COSQUIN 2309",1407,"CAPITAL FEDERAL","AR",,,,30661352368,30661352368
20252909,4200,"ESTUDIO LEVY GUIDO & LEVY","DAN ARG",,"AVENIDA PASEO COLON 746",1063,"CAPITAL FEDERAL","AR",1143341234,,,30649772580,30649772580
20252925,4200,"IT CONVERGENCE ARGENTINA S.R.L.","SN ARG",,"AV. CORRIENTES 330 PISO 5 502",1378,"CAPITAL FEDERAL","AR",541140008400,,,30708933399,30708933399
20255363,4200,"THORCONSTRUCTORA S.A.S","SN ARG",,"Pablo Pizzurno 5",1686,"HURLINGHAM","AR",,,,30716223902,"EXENTO"
20255545,4200,"NEW CLEVERS S.A","SN ARG",,"Larrazabal 1949",1440,"CAPITAL FEDERAL","AR",1141396900,,,30716284367,
20259815,4200,"NUMAN SRL","SN ARG",,"AV LIBERTADOR 8630 P 13 OF 3",1429,"CAPITAL FEDERAL","AR",50328107,,,30715033263,30715033263
20260173,4200,"ALLIANZ ARGENTINA CIA DE SEGUROS S.","SN ARG",,"Av. Corrientes 299",1045,"CAPITAL FEDERAL","AR",43203848,,,30500037217,
20259826,4200,"ABC 1 TECHNOLOGY S.A.","SN ARG",,"GARCIA SILVA 1094",1708,"MORON","AR",1146299340,,,30710450877,9012710288
20263551,4200,"BUREAU VERITAS EXPLOITATION","DAN ARG",,"8 Cours du Triangle",92800,"PUTEAUX","FR",387399331,,790184675,790184675,
20271418,4200,"RED LOGISTICS SA","SN ARG",,"CHILE 1342",1098,"CAPITAL FEDERAL","AR",50321327,,,30708143738,9015422077
20271239,4200,"CABIFY S.A.","SN ARG",,"Pico 1641",1429,"CAPITAL FEDERAL","AR",5491555057965,,,30715245120,"1514649-9"
20069228,4200,"METTLER TOLEDO SAFELINE","METTLER T",,"1571 NORTHPOINTE PARKWAY",33558,"LUTZ","US","11 41667400",0,,,"ISENTO"
20100980,4200,"SWISS CAN MACHINERY AG","SWISS CAN",,"BAHNHOFSTRASSE 6-8",9434,"AU SG","CH","41 71 544 55 55","41 71 544 55 50",,,
20116489,4200,"OXIPACK BV","OXIPACK",,"WILGENKADE 17","3992 LL","HOUTEN","NL",31639431175,,"NL851701838B01",,
20112787,4200,"LOEB CAPOTE ARQUITETURA E URBANISMO","LOEBCAPOTE",,"R GROENLANDIA 80",1423001,"SAO PAULO","BR","11 3081 6344","11 3085 2839",,16676039000163,"ISENTO"
20117862,4200,"OPTIMA CONSUMER GMBH","OPTIMA CON",,"GESCHWISTER-SCHOLL-STR. 89",74523,"SCHWABISCH HALL","DE",,,"DE812244765",,
20140814,4200,"MOHN GMBH","MOHN",,"AM STADION 4",58540,"MEINERZHAGEN","DE",,,"DE196898947",,
20168263,4200,"SILLIKER AUSTRALIA PTY LTD",403051,,"20 KING STREET",3130,"BLACKBURN","AU","03 8878 2100","03 9877 8444",94006462335,,
20193274,4200,"DINNISSEN B.V.",,,"HORSTERWEG 66","5975 NB","SEVENUM","NL",31774673555,31774673785,"NL006021311B01",,
20199246,4200,"IMPUESTOS","SN ARG",,"MORENO 877 P 12",1091,"CAPITAL FEDERAL","AR",,,,305000109121,
20219785,4200,"ASANA, INC.","ASANA, INC",,"1550 1550 BRYANT STREET, SUITE 200",94103,"SAN FRANCISCO","US",4155253888,,,,
20238017,4200,"HP INC","HP INC",,"1501 PAGE MILL RD",943041126,"PALO ALTO","US",,,,,
20281114,4200,"MOI FOODS MALASYA SDN","SN ARG",,"42920 PULAU INDAH",1000,"CAPITAL FEDERAL","AR",,,,,
20281115,4200,"FORTITECH","SN ARG",,"STOS DUMONT 75 PISTA NORTE KM68",13050036,"CAMPINAS","BR","55 19 3265 1000",,,,
20281116,4200,"UNION INDUSTRIAL DE ESCOBAR","SN ARG",,"GRAL SAVIO Y EINSTEIN",1619,"GARIN","AR",,,,33660712319,
20281120,4200,"KAS TRANSFERENCIA DERECHO","SN ARG",,"AV. PANAMERICANA Y GRAL. SAVIO",1619,"GARIN","AR",,,,,
20281123,4200,"KAS SECTOR SEGUROS","SN ARG",,"MORENO 877",1091,"CAPITAL FEDERAL","AR",,,,,
20281132,4200,"ADIX CONSULTING TRAINING SLU","SN ARG",,"AVDA. CERRO DEL ÁGUILA 9",28703,"SS DE LOS REYES","ES",34916592,,,,
20281134,4200,"DETECTA-PLASTICS, S.L.","SN ARG",,"MA.VIDAL 196",8340,"VILASSAR DE MAR","ES",666559217,,,,
20281135,4200,"REGENER SAS","SN ARG",,"TIMOTEO GORDILLO 3900",1439,"VILLA LUGANO","AR",46357630,,,30715938185,30715938185
20281142,4200,"REGENER SRL","SN ARG",,"ESMERALDA 582 P 2 - CAPITAL FEDERAL",1007,"CAPITAL FEDERAL","AR",46357630,,,30716672111,
20281144,4200,"GRANUTOOLS SPRL","SN ARG",,"RUE JEAN-LAMBERT DEFRÊNE 107",4340,"AWANS","BE",43840074,,,,
20281145,4200,"MULOX DE MEXICO, S.A. DE C.V.","SN ARG",,"CARRETERA CENTRAL KM 612",78790,"MATEHUALA","MX",8824032,,,,
20281148,4200,"SYSTEMATIC POWERHANDLING BV","SN ARG",,"BOTNISCHE GOLF 5","3446 CN","WOERDEN","NL",31348474,,,80623918901,
20281149,4200,"CESUR PACKAGING BENELUX B.V.","SN ARG",,"BREDASEWEG 237","4705 PB","ROOSENDAAL","NL",165743111,,,,55000004234
20281152,4200,"SIX SIGMA PRODUCTS GROUP INC","SN ARG",,"12295 ORACLE BLVD SUITE 340",80921,"COLORADO SPRINGS","US",7856757,,,,
10000982,4200,"NUTRICIA NORTH AMERICA","HO GOLDEN",,"77 UPPER ROCK CIRCLE, SUITE 303",20850,"Rockville","US","301 795 2242","301 795 2307",,,
20106774,4200,"EUROFINS CONSUMER PRODUCT TESTING G","FOUACHAT",,"AM NEULANDER GEWERBEPARK 4",21079,"HAMBURG","DE",4940492946900,,"DE258239846",103427,
20199717,4200,"CHELAB SRL","FOUACHAT",,"VIA FRATTA 25, RESANA",31023,"TREVISO","IT","00 390423 717640",,"IT01500900269",1500900269,
20281088,4200,"ZUCAMOR CUYO S.A.I.C.F.I.","SN ARG",,"AV ALICIA MOREAU DE JUSTO 170",1107,"CAPITAL FEDERAL","AR",1143658174,,,30606295118,"901-920568-"
20281089,4200,"INDUSTRIAS QUIMICAS ALMIDAR S.A.","SN ARG",,"LA PAMPA 1512 P 12",1428,"CAPITAL FEDERAL","AR",47894900,0,,30529059953,
20281090,4200,"EMBALPACK S A","SN ARG",,"Nicasio Oroño 2444",1416,"CAPITAL FEDERAL","AR",,,,30557327181,"901-177160-"
20281166,4200,"UNIFARMA S.A.","SN ARG",,"Céspedes 3857",1427,"CAPITAL FEDERAL","AR",,0,,30568282090,90130568282
20281167,4200,"FERROMET S.A.","SN ARG",,"VON WERNICKE 3038",1642,"CAPITAL FEDERAL","AR",,0,,33519697969,"901-919433-"
20281168,4200,"S A I G R A","SN ARG",,"BERON DE ASTRADA 2450",1437,"CAPITAL FEDERAL","AR",48799000,0,,30574984501,"901-936017-"
20281169,4200,"IMAP S.A.I.C.","SN ARG",,"CORRIENTES 1302 7º P",1043,"CAPITAL FEDERAL","AR",,0,,30500741038,
20281170,4200,"SISTEMAS DE CODIFICACION S.A.","SN ARG",,"L. M. DRAGO 2685 - PARQUE IND",1000,"CAPITAL FEDERAL","AR",,,,30707972625,"902-794325-"
20281171,4200,"GRUPO COMECA ARGENTINA SA","SN ARG",,"CALLE 9 N 741",1629,"PILAR","AR",4687528,0,,30654231016,"901-983144-"
20281172,4200,"ITZA S.A.","SN ARG",,"BRANDSEN 2953",1703,"VILLA JOSE INGENIEROS","AR",1547577940,,,30707033122,"901-219227-"
20281173,4200,"TALLERES GRAFICOS CORTI SAICAF","SN ARG",,"AV GALICIA 1021/71",1870,"AVELLANEDA","AR",,0,,30523460443,
20281174,4200,"ARTECOLA ARGENTINA SA","SN ARG",,"DIEGO DE ROSALES 691",1686,"HURLINGHAMÂ ","AR",,,,30693190777,"901-196499-"
20281175,4200,"KYOWA HAKKO BIO CO. LTD","SN ARG",,"1-6-1 OHTEMACHI, CHIYODA-KU",1000004,"TOKYO","JP",,,,55000003203,
20281176,4200,"PLASTICOS ARENALES SA","SN ARG",,"LOS OLIVOS 649",1708,"MORON","AR",46450172,0,,30573632954,"30-57363295"
20281177,4200,"INGREDION INC","SN ARG",,"5 WESTBROOK CORPORATE CENTER",60154,"WESTCHESTER","US",,,,55000002126,
20281178,4200,"CARGIL NV","SN ARG",,"PRINS ALBERTLAAN 12",8870,"PRINS ALBERTLAAN 12","BE",,,,,
20281179,4200,"ALGRY QUIMICA SL","SN ARG",,"POL. IND. NUEVO PUERTO PARC 3",21810,"PALOS DE LA FRONTERA","ES",,0,,,
20281180,4200,"DSM NUTRITIONAL PRODUCTS MÉXICO","SN ARG",,"AQUILINO DE LA GUARDIA 8 5TO. IGRA",1,"CIUDAD DE PANAMA","PA",,,,55000002207,
20281182,4200,"CARGILL PALM PRODUCTS SDN BHD.","SN ARG",,"MENARA SUEZCAP 2 KL GTWY LEVEL26",59200,"KUALA LUMPUR","MY",,0,,55000003262,
20281183,4200,"SOCIEDAD ELABORADORA DE ACEITES S E","SN ARG",,"CERRITO 836",1009,"CAPITAL FEDERAL","AR",,0,,30505605949,"901-935681-"
20281184,4200,"TELGOMAX S.R.L.","SN ARG",,"MONTANESES 2961",1429,"CAPITAL FEDERAL","AR",,,,30714246743,9016109426
20281185,4200,"DEL PLAST ENVASES FLEXIBLES S.A.","SN ARG",,"COLON 1017",6700,"LUJAN","AR",59525855,,,30709179906,9024931019
20281186,4200,"CARGILL AGRICOLA S/A (UBERLANDIA)","SN ARG",,"R WILL CARGILL SL 03 CDC 880",38402350,"UBERLANDIA","BR",553432184900,0,,,
20281187,4200,"CORRADINI NICOLAS OMAR","SN ARG",,"JOSE HERNANDEZ 95",1617,"GENERAL PACHECO","AR",31752628,,,20289832824,
20281188,4200,"INTERFOOD INC","SN ARG",,"777 BRICKELL AVE SUITE 702",33131,"MIAMI","US",17866219711,0,,55000002126,
20281189,4200,"QUIMATIC SA","SN ARG",,"EL ROSAL 4578, HUERCHURABA","J8FX+F7","SANTIAGO DE CHILE","CL",56226756400,,,,
20020161,4200,"BENEO ORAFTI-OREYE","TR-NEOQUIM",,"RUE LOUIS MARECHAL 1",4360,"OREYE","BE",,,,,
20111114,4200,"DUPONT NUTRITION BIOSCIENCES APS","DUPONT",,"EDWIN RAHRS VEJ 38",8220,"BRABRAND","DK",4661602137,4661602346,"DK16527289",,
20150153,4200,"PLAST E PACK INDUSTRIA E COMERCIO","PLAST E PA",,"R NOVA ESPERANCA 1757",83325025,"PINHAIS","BR","41 3668 3169","00 0000 0000",,1875588000190,9013271655
20189567,4200,"Solae LLC","SOLAE LLC",,"4300 Duncan Avenue",63110,"St.Louis","US",,,,"43-1448205",
20194262,4200,"FIRMENICH S.A.I.C. Y F.","SN ARG",,"COL PANAMERICANA ESTE KM25.201",1611,"DON TORCUATO","AR",,0,,33534876969,9028804922
20194254,4200,"TETRA PAK SRL",,,"SUIPACHA 1111 P 12°",1368,"BUENOS AIRES","AR",47257600,47257679,,30589123286,9129219033
20201911,4200,"QFF SRL",,,"TANDIL 7102",1440,"CAPITAL FEDERAL","AR","4 687 1145",0,,30710962304,9017397550
20201460,4200,"ADAMA SOCIEDAD ANONIMA",,,"AV.DEL LIBERTADOR 8630",1429,"CAPITAL FEDERAL","AR",47032464,0,,30609264760,9019459067
20225968,4200,"VITA SQUARE B.V.",,,"FRISAXSTRAAT 1","8471 ZW","WOLVEGA","NL",561691878,561614501,"NL853513880B01",,
20237097,4200,"CHR. HANS N ARGENTINA S.A.I.C.",,,"BV CECILIA GRIERSON 422",1107,"CAPITAL FEDERAL","AR",,,,30503634666,30503634666
20237074,4200,"FABEN SA","DAN UY",,"AV OCTAVIO ZOBBOLI 1249",2300,"RAFAELA","AR","0054 3492 440294",0,,33557499879,33557499879
20229094,4200,"SOLAE DO BRASIL INDUSTRIA E COMERCI","SOLAE DO B",,"ROD FEDERAL, BR 116 702",93270000,"ESTEIO","BR",,0,,5547514000185,430103417
20241069,4200,"ABK SRL","DAN ARG",,"Dr. Rebizzo 5683",1678,"BUENOS AIRES","AR",1147502910,,,33625752499,
20237098,4200,"MILKAUT S.A",,,"EMILIO MITRE 1031",1752,"L. DEL MIRADOR","AR","0342 4201200","0342 4501224",,30682032630,30682032630
20242595,4200,"SEABOARD ENERGIAS RENOVABLES Y ALIM","DAN ARG",,"AV. L. N. ALEM 986 P. 9°",1001,"CAPITAL FEDERAL","AR",,0,,30501091223,"901-920209-"
20242627,4200,"DUAS RODAS ARGENTINA S.A.","DAN ARG",,"CARACAS 1046",1406,"CAPITAL FEDERAL","AR",,0,,30535400497,9019162503
20242628,4200,"SAPORITI S.A.","DAN ARG",,"UGARTE 2110",1428,"CAPITAL FEDERAL","AR",0,0,,30536706433,
20242611,4200,"BASF ARGENTINA S.A.","DAN ARG",,"AV. CORRIENTES 327 P 15",1043,"CAPITAL FEDERAL","AR",,0,,30517486678,
20250264,4200,"GHIRARDI MARTIN ALEJANDRO","DAN ARG",,"Tucuman 314",1832,"LOMAS DE ZAMORA","AR",111167804641,0,,20295425025,9024449045
20242630,4200,"ARLA FOOD & INGREDIENTS","DAN ARG",,"AV FONDO DE LA LEGUA 1380",1640,"MARTINEZ","AR",45055953,,,30707260978,9010442722
20252162,4200,"LESET ARGENTINA S.A.",82204,,"LAS PALMAS 2493",1437,"POMPEYA","AR","4919 9607",,,30708355921,"1105350-10"
20251589,4200,"CARGILL SOCIEDAD ANONIMA","SN ARG",,"DELLA PAOLERA CARLOS M. 261",1001,"CAPITAL FEDERAL","AR",0,,,30506792165,"901-911073-"
20092563,4200,"ALLBRANDS INDUSTRIA DE ALIMENTOS S/","ALLBRANDS",,"R LUIZ BERLESI 348",83412050,"COLOMBO","BR",,,,3973903000147,9022958795
20265333,4200,"VEEMBEDRIJF A BV","BUISMAN",,"MINDENSTRAAT 10","8028 PK","PK ZWOLLE","NL",3845757590,,"NL808874925B01",,
20271240,4200,"ZUCAMOR SA","DAN ARG",,"Cno. Gral Belgrano Km 14700",1881,"BUENOS AIRES","AR",1142501066,,,30677911634,
10007011,4200,"LOGISTICA LA SERENISIMA S.A.","DC DISTR C",,"RUTA 28 Y LOS NARANJOS","B1748","GENERAL RODRIGUEZ","AR",,,,30707210385,9010435074
10000993,4200,"N.V. NUTRICIA","HO GOLDEN",,"1e Stationsstraat 186","2700 MA","ZOETERMEER","NL",0,0,"NL001797025B01",,
10005451,4200,"DANONE FOODS, INC","DUPLICATIO",,"100 Hillside Avenue",10603,"White Plains","US",,,,,
10006379,4200,"DANONE RESEARCH CENTRE DANIEL CARAS","DUPLICATIO",,"128-91767 PALAISEAU CEDEX",91767,"PARIS","FR",,,,,
10007426,4200,"3300 DE Milupa GMBH HQ","HO GOLDEN",,"Schleyerstrasse 4",36041,"Fulda","DE",,,"DE202147806",,
10007563,4200,"NUTRICIA BAGO SA","HO GOLDEN",,"MORENO 877 5to PISO",1091,"CIUDAD AUTONOMA BUENOS AIRES","AR",,,30707013431,30707013431,9010392251
10007564,4200,"AMN ADVANCED MEDICAL NUTRITION S.A.","HO GOLDEN",,"MORENO 877",1091,"CABA","AR",,,,30711385130,9014055984
20006368,4200,"JORGENSEN ENGINEERING A/S","JORGENSEN",,"M.P.ALLERUPS 20 -",5220,"ODENSE S","DK",63132211,,"DK51452216",,
10000196,4200,"DANONE LTDA - BRAZIL","DUPLICATIO",,"AVENUE PAULISTA N° 2300 20° ANDAR",1310300,"SAO PAULO","BR","55 11 2192 4600","55 11 3741 9064","23.643.315/0030-97",,
20194844,4200,"HADERNE RUBEN OMAR","SN ARG",,"LAUTARO 652 DEP:1 -",1406,"CAPITAL FEDERAL","AR",,,,20144301456,194474302
20195141,4200,"RDA RENTING S.A.","SN ARG",,"AV LEANDRO N ALEM 449",1003,"CAPITAL FEDERAL","AR","6009 2700",,,30712257357,9016650574
20195166,4200,"HP INC ARGENTINA S.R.L.","SN ARG",,"VEDIA 3616 PISO 7",1430,"CAPITAL FEDERAL","AR",,,,30714809373,9016433446
20195597,4200,"SOLUTION BOX S.R.L.","SN ARG",,"GONCALVEZ DIAS 658",1276,"CAPITAL FEDERAL","AR",,,,30707975020,9010586523
20137946,4200,"LONZA SALES LTD","LONZA",,"MÜNCHENSTEINERSTRASSE 38",4002,"BASEL","CH","004161316 8111","004161316 9111","BE0889727946",,
20281273,4200,"FRESENIUS KABI AUSTRIA GMBH","SN ARG",,"ESTERMANNSTRASSE 17",4020,"LINZ","AT",437327651448,,,,
20281274,4200,"KERRY INGREDIENTS (DE MEXICO), SA D","SN ARG",,"CARRETERA PANAMERICANA KM 11.2 SN",36660,"IRAPUATO","MX",4272681153,0,,"KIM941206S20",
20281195,4200,"ELECTROSISTEM S.A","SN ARG",,"AV GRAL PAZ 12367",1752,"CAPITAL FEDERAL","AR",46992378,,,30629778477,"901-176919-"
20281181,4200,"CARGILL TEXTURIZING SOLUTIONS","SN ARG",,"AUSSCHLAEGER ELBDEICH 62",20539,"HAMBURG","DE",,,,55000004005,
20281197,4200,"CIROCO S.R.L","SN ARG",,"ITALIA 531",1818,"EL TALAR PACHECO","AR",47260288,,,30614816550,"901-936028-"
440011679,4200,"AMERICAN EXPRESS ARGENTINA S.A.",,,"MORENO 877 PISO 10",1092,"CAPITAL FEDERAL","AR",,,,,
540000940,4200,"COCARO NICOLAS FRANCISCO","DAN ARG",,"PANAMERICANA Y GRAL SAVIO",1619,"GARIN","AR",,,,23316737889,
540000961,4200,"LUPICA SABRINA ANALIA","DAN ARG",,"PANAMERICANA Y GRAL SAVIO",1619,"GARIN","AR",,,,27310392257,
540001031,4200,"VIVIANA PATALANO","DAN ARG",,"GRAL. SAVIO Y PANAMERICANA",1619,"Garin","AR",,,,23228608254,
540001050,4200,"GAGLIANO MARIA LAURA","DAN ARG",,"MORENO 877",1091,"CAPITAL FEDERAL","AR",,,,27281699321,
540001065,4200,"DI PACE ALDO","DAN ARG",,"MORENO 877",1091,"CAPITAL FEDERAL","AR",,,,20165221045,
540001099,4200,"ORLANDO AGUSTINA","DAN ARG",,"MORENO 877",1091,"CAPITAL FEDERAL","AR",,,,27378051709,
540001100,4200,"AYELEN ROXANA BRUNO","DAN ARG",,"MORENO 877",1091,"CAPITAL FEDERAL","AR",,,,27379319330,
540001112,4200,"ABAGNALE FLORENCIA","DAN ARG",,"DR. REAL 563 PLANTA BAJA. DPTO B.",6700,"LUJAN","AR",,,,27360725869,
540001114,4200,"VILA DIEGO","DAN ARG",,"ANCHORENA 1352 1ERO",1425,"CAPITAL FEDERAL","AR",,,,20365954934,
540001116,4200,"ACEVEDO SOFIA","DAN ARG",,"CALLAO 876",1625,"CAPITAL FEDERAL","AR",,,,23331559644,
540001117,4200,"ROVAGNATI SANTIAGO","DAN ARG",,"LAFINUR 3032, 2 DO P, DTO A",1425,"CAPITAL FEDERAL","AR",,,,20316519378,
10005211,4200,"Nutricia Cuijk B.V","HO GOLDEN",,"P.O. Box 6","5430 AA","CUIJK","NL",,0,"NL001797001B01",,
20208108,4200,"CHR. HANSEN HMO GMBH",,,"MAARWEG 32",53619,"RHEINBREITBACH","DE",49222498810500,49222498810898,"DE243130914",,
20138039,4200,"AMINO GMBH","DE81476839",,"AN DER ZUCKER-RAFFINERIE 9",38373,"FRELLSTEDT","DE","5355 9100","5355 9100 710","DE814768391",,
20184458,4200,"SONOCO PRODUCTS COMPANY","SONOCO PRO",,"833 SOUTH 60TH AVENUE",54401,"WAUSAU","US",,,570248420,,
20192059,4200,"JUTA A.S",,,"DUKELSKA 417","544 15","DVUR KRALOVE","CZ",499314293,,"CZ45534187",,
20160589,4200,"VOGLER INGREDIENTS LTDA","VOGLER ING",,"EST FUKUTARO YIDA 1155",9852060,"SAO BERNARDO DO CAMPO","BR",,,,62185905000130,63548728611
20174612,4200,"SENSIENT TECHNOLOGIES BRASIL INDUST","SENSIENT T",,"AVENIDA BENEDITO QUINA DA SILVA 550",13212141,"JUNDIAI","BR",,,,4249052000157,40727657511
20153631,4200,"DIVFOOD DIVISION OF NAMPAK PRODUCTS","DIVFOOD DI",,"SN 03 NOBEL BOULEVARD",1900,"VANDEBIJLPARK","ZA",27169503155,0,,,
20194918,4200,"FULL MARK SA",,,"URUGUAY 4688",1643,"BECCAR","AR",,,,30707370471,9010467367
20194901,4200,"PRIMATER S.R.L.","SN ARG",,"ENRIQUE PRINS 1468",1428,"CAPITAL FEDERAL","AR",,,,30694578124,9019012422
20195026,4200,"CARTOCOR SOCIEDAD ANONIMA","SN ARG",,"RUTA 6 KM 160",6700,"LUJAN","AR",2323441900,,,30586733334,9043533966
20195414,4200,"MANUPACKAGING ARGENTINA S A",,,"RUTA 9 PANAM.COLEC.OESTE KM 52",1625,"ESCOBAR","AR",,,,30697309264,9010246496
20195248,4200,"PISTRELLI, HENRY MARTIN Y ASOCIADOS","SN ARG",,"25 DE MAYO 487",1002,"CAPITAL FEDERAL","AR",,,,30708185864,9010637020
20195377,4200,"A G PRUDEN Y CIA SACIFIA","SN ARG",,"H. YRIGOYEN 2411",1640,"MARTINEZ","AR",47332500,,,30516740058,901918395
10000180,4200,"DANONE ARGENTINA SA","HO GOLDEN",,"MORENO 877 PISO 12°",1091,"CAPITAL FEDERAL","AR","54 11 4341 4000","54 11 4341 4202","AR30711385130",30501116242,9019189598
20194969,4200,"LOPEZ ARIEL HERNAN","SN ARG",,"JOSE HERNANDEZ 1621",1054,"CAPITAL FEDERAL","AR","5 786 0664",,,20279020775,
20194647,4200,"WINTER MARIANO GASTON","SN ARG",,"ARENAL CONCEPCION 2630 DEP:7",1426,"CAPITAL FEDERAL","AR",,,,23232654759,23232654759
10000999,4200,"DANONE TRADING ELN B.V.","HO GOLDEN",,"TAURUSAVENUE 167","2132 LS","HOOFDDORP","NL",,,"NL809579844B01",,
20151073,4200,"DSM Nutritional Products","DSM",,"3927 Collection Center Drive",60693,"Chicago","US",,,,,
20001204,4200,"J. RETTENMAIER & SOHNE",,,"HOLZMUEHLE 1",73494,"ROSENBERG","DE","0049 7967 152637","0049 7967 152500 637","DE144631714",,
20254435,4200,"STEPAN SPECIALTY PRODUCTS LLC","MAIN",,"22 W FRONTAGE RD",60093,"NORTHFIELD","US",,,,"36-1823834",
20125164,4200,"JONGERIUS TECHNOLOGY NV","JONGERIUS",,"LIEVEN GEVAERTSTRAAT 11",2950,"KAPELLEN","BE",,"00 0000 0000","BE0431582296",,"."
20165864,4200,"FPS FLEXIBLES BENELUX BV","GREIF",,"JUPITERWEG 1","4782 SE","MOERDIJK","NL",168359999,168359988,"NL001880159B01",,
20165741,4200,"SWEETMIX INDUSTRIA COMERCIO","SWEETMIX I",,"AL CACAPAVA 60",18085250,"SOROCABA","BR","19 3881 8336","19 38818336",,26910000143,66928205611
20146731,4200,"GIVAUDAN DO BRASIL LTDA","GIVAUDAN 0",,"AV ENG BILLINGS 2185, 0",5321010,"SAO PAULO","BR",1137608000,"11 37608075",,61188488000117,10270585611
10005641,4200,"NUTRICIA INFANT NUTRITION LTD","HO GOLDEN",,"CASTELVIEW CO CORK",,"MACROOM","IE","026 41302","026 4223","IE6404474C",,
10000381,4200,"AGUAS DE ORIGEN S.A.","HO GOLDEN",,"MORENO 877 - PISO 4",1091,"BUENOS AIRES","AR",1143414000,1143414262,,33717513059,90133717513
20137985,4200,"ROHSTOFF TRADING","ROHSTOFF",,"HAUPTSTR 112",73055,"EBERSBACH - GERMANY","DE",497163530112,497163530113,"DE164711289",,
20138058,4200,"CALDIC INGREDIENTS B.V.",,,"BRIGADEDOK 1","3433 KH","NIEUWEGEIN","NL","0031 348 566666","0031 348 561376","NL006266149B01",,
20146723,4200,"DSM PRODUTOS NUTRICIONAIS BRASIL","ROCHE DSM",6364,"AVENIDA ENGENHEIRO 1729, PREDIO 31",5321010,"SAO PAULO","BR","00 0000 0000",0,,4578257000186,11619720911
20138151,4200,"BIOSEARCHLIFE","BIOSEARCHL",,"CAMINO DE PURCHIL 66",18004,"GRANADA","ES",34958240152,34958240160,"ESA18550111",,"ISENTO"
20153580,4200,"VITABLEND ASIA PACIFIC PTE LTD","VITABLEND",,"1 SENOKO AVENUE 01-06/07",758297,"SINGAPORE","SG",0,0,,,
20194543,4200,"LUCERO PEDRO ANTONIO","SN ARG",,"AGUADO 653",1617,"GENERAL PACHECO","AR",,,,23103699509,23103699509
20001484,4200,"BASF SE","BASF",,"Carl Bosch Strasse 38",67056,"LUDWIGSHAFEN - GERMANY","DE",,,"DE149145247",,
20194286,4200,"DUTCH STARCHES INTERNATIONAL S.A.",,,"AV. ELCANO 3853",1427,"BUENOS AIRES","AR",1145566900,0,,30686144492,9011775638
20194606,4200,"ALFA INSTRUMENTOS SRL","SN ARG",,"DEL PINO VIRREY 2686 7E",1426,"CAPITAL FEDERAL","AR",,,,33710448979,
20194632,4200,"RAPOSO LEANDRO ARIEL","SN ARG",,"ARMENIA 1640",1414,"CAPITAL FEDERAL","AR",,,,20230750638,127271103
20194669,4200,"ANYKA SRL",,,"LARREA 390 P 1",1609,"SAN ISIDRO","AR",,,,30656329293,9019895649
20194672,4200,"STONCOR SOUTH CONE S.A.","SN ARG",,"EINSTEIN 1095",1619,"GARIN","AR",,,,30527693574,9019129303
20194684,4200,"KLUBER LUBRICATION ARG. S.A.","SN ARG",,"MARTIN J. HAEDO 4301",1602,"FLORIDA","AR",,,,30575001641,9029229181
20194696,4200,"ED GAR S.A.","SN ARG",,"TOMAS GUIDO 1979",1678,"CASEROS","AR",,,,30592097482,9020975014
20194779,4200,"INDUSTRIA Y AMBIENTE S.A.","SN ARG",,"MERLO 10",1766,"LA TABLADA","AR","4454 3474",,,30710936753,9023493952
20194833,4200,"GIVAUDAN ARGENTINA S.A.","SN ARG",,"SAN LORENZO 4759, MUNRO",1605,"PROVINCIA DE BUENOS AIRES","AR",1147629100,,,30536196206,9019192838
20194797,4200,"VILLANUEVA CARLOS ROBERTO","SN ARG",,"COSTA RICA 808",1834,"TEMPERLEY","AR",,,,20263536895,9027739746
20138029,4200,"AAK NETHERLANDS B.V.","AAK",,"KREEFTSTRAAT 1","1544 CK","ZAANDIJK - NETHERLANDS","NL",31756278462,31756278478,"NL002231104B01",,
20194908,4200,"PORMATIC S.A. (EN FORMCION)","SN ARG",,"GUIRALDES 555",1878,"QUILMES","AR",,,,30709690643,9029531016
20146708,4200,"CARGILL AGRICOLA S A","CARGILL PO",,"RUDOLF STREET 55 55, 0",13660000,"PORTO FERREIRA","BR","00 0000 0000",0,,60498706015189,55511660911
20194915,4200,"FALABELLA SA","SN ARG",,"FLORIDA 343",1005,"CAPITAL FEDERAL","AR",40009800,,,30655725829,9019840917
20195035,4200,"MARKEM-IMAJE S.A.",,,"AVDA DE LOS CONSITUYENTES 2240",1617,"GENERAL PACHECO","AR",,,,30528150434,9029461151
20194958,4200,"LUIS ALBERTO DIAZ","SN ARG",,"VIRREY ARREDONDO 3448 P8 C",1426,"CAPITAL FEDERAL","AR",1556660007,,,20124347646,
20151066,4200,"FrieslandCampina Kievit B.V.","FRIESLANDC",,"Oliemolenweg 4A","7944 NL","HX Meppel","NL",,31522238100,,,
20090147,4200,"Arla Foods Ingredients Group P/S","ARLA FOODS",,"SONDERHOJ 10-12 , 10-12",8260,"VIBY J","DK",89381257,89381290,"DK12613725",,
20137986,4200,"ROQUETTE FRERES SA","ROQUETTE",,"1 1 RUE HAUTE LOGE",62136,"LESTREM CEDEX","FR",33321635333,33321639470,"FR46357200054",,
20195050,4200,"TIARG S.A.","SN ARG",,"MORENO 850 P.4° E",1091,"CAPITAL FEDERAL","AR",,,,30707621911,9010521341
20195142,4200,"BIGBOX SA","SN ARG",,"AV DEL LIBERTADOR 6550",1428,"CAPITAL FEDERAL","AR","4 780 3765",,,30711091552,9014012084
20195041,4200,"FESTO S.A.","SN ARG",,"EDISON 2392",1640,"MARTINEZ","AR",,,,30596013399,9019117039
20111422,4200,"FRIESLANDCAMPINA INGREDIENTS B.V. 8","FRIESLAND",1551,"STATIONSPLEIN 4 4","3818 LE","AMERSFOORT","NL",31593713030,31593713099,"NL821385811B01","NL821385811B01",
20195193,4200,"AIR LIQUIDE ARGENTINA S A",,,"MONSEÑOR MAGLIANO 3079",1642,"SAN ISIDRO","AR",,,,30500852131,9029177542
20195200,4200,"CONFECAT S.A.","SN ARG",,"AV PRESIDENTE CASTILLO 2842",4700,"SAN FERNANDO DEL VALLE DE CATAMARCA","AR",1142404350,,,30597919154,9028660871
20195372,4200,"RACKLATINA SA","SN ARG",,"AV. GAONA 2682",1744,"MORENO","AR",,,,30679696323,9021711350
20195378,4200,"BECHEM SUDAMERIKA S A","SN ARG",,"ALVARADO 3093",1290,"GENERAL RODRIGUEZ","AR",,,,33688933639,9011823395
20137938,4200,"KIRSCH PHARMA GMBH","KIRSCH PHA",,"ERZWASCHE 2",38229,"SALZGITTER","DE",495341879782,495341879787,"DE116880212",,
20195397,4200,"DSM NUTRITIONAL PRODUCTS ARGENTINA","SN ARG",,"COLECTORA ESTE PANAMERICANA KM 36",1615,"GRAND BOURG","AR",543327448613,,,30707822429,9010582437
10005553,4200,"4900 N.V. NUTRICIA GORDIAN Central","DC DISTR C",,"Popeweg 42","5928 SC","Venlo","NL",,,"NL001797025B01",,
10006384,4200,"DANONE LTDA","HO GOLDEN",,"AV A 321",37718257,"POCOS DE CALDAS","BR",,,23643315014455,23643315014455,51803897156
10006534,4200,"3600 Macroom Factory Plant","SP SUPPLY",,"CASTLEVIEW","CO. CORK","MACROOM","IE",,,"IE6404474C",,
20137913,4200,"FRIESLANDCAMPINA NEDERLAND B.V.","FRIESLANDC",8,"STATIONSPLEIN 4","3818 LE","AMERSFOORT","NL",31337133551,31337133782,"NL803378580B01",,
20153154,4200,"DOREMUS ALIMENTOS LTDA","DOREMUS AL",,"R SANTA MARIA DO PARA 32/62",7175400,"GUARULHOS","BR",,"00 0000 0000",,54289830000100,33618530511
20137944,4200,"STEPAN SPECIALITY PRODUCTS B.V.","STEPHAN",,"A. HOFMANWEG 5A","2031 BH","HAARLEM","NL",31757271000,31756292817,"NL850652418B01",,
10005575,4200,"4900 N.V. NUTRICIA GORDIAN HQ","HO GOLDEN",,"POPEWEG 42 42","5928 SC","VENLO","NL",,,"NL001797025B01",,
10000952,4200,"NUTRICIA ZAKLADY","DUPLICATIO",,"Ul. Marka z Jemielnicy 1",45952,"OPOLE","PL",0,0,"PL7540335340","754-033-53-40",
10006878,4200,"3700 PL DC Nutricia_Piomar","DUPLICATIO",,"Światowida 16",45325,"Opole","PL","48 77 400 88 00",,,,
20199985,4200,"VISA ARGENTINA S.A.","SN ARG",,"MORENO 877",1091,"CAPITAL FEDERAL","AR",,,,30598910045,
20116210,4200,"INGREDION INCORPORATED","INGREDION",409882,"5 WESTBROOK CORP CTR",60154,"WESTCHESTER","US",,,,"22-3514823",
20280316,4200,"KORN FERRY FUTURESTEP ARGENTINA S.R","SN ARG",,"CORRIENTES AV. 1750 PISO:10",1042,"CAPITAL FEDERAL","AR",,,,30712184287,
20195670,4200,"Z & S FACTORS S.A.","SN ARG",,"PARAGUAY 610 P 26",1057,"CAPITAL FEDERAL","AR",,,,30685915029,30685915029
20280358,4200,"WALLCHASE","SN ARG",,"AYACUCHO 984 P PB",1111,"CAPITAL FEDERAL","AR",68411600,,,30716502615,"1573108-01"
20280366,4200,"MEDIGLOVE SRL","SN ARG",,"PEDRO DE MENDOZA 1883",1686,"HURLINGHAM","AR",44527777,,,30707948708,30707948708
20195806,4200,"COMPAÑIA ARGENTINA DE MERCHANDISING","SN ARG",,"CHICLANA 102",1766,"LA TABLADA","AR",,,,30709135135,9028429681
20251566,4200,"BONAFIDE S A I C","SN ARG",,"GAVILAN 1055",1406,"CAPITAL FEDERAL","AR",,,,30501214589,"901-918596-"
10000927,4200,"Danone Trading Medical B.V.","HO GOLDEN",,"TAURUSAVENUE 167","2132 LS","HOOFDDORP","NL","00 0000 0000","00 0000 0000","NL854734557B01",,
20138063,4200,"CARGILL BV CARGILL TEXTURIZING SOLU",,499,"EVERT VAN DE BEEKSTRAAT 378","1118 CZ","SCHIPHOL","NL","075 6501501",,"NL002176816B01",,
20194703,4200,"CPT INTEGRAL S.A.","SN_ARG",,"LUZURIAGA 1550",1279,"CAPITAL FEDERAL","AR",50807035,,,30693293754,9019012461
20194753,4200,"ZARVAR S.A.","SN ARG",,"LIMA 187",1073,"CAPITAL FEDERAL","AR","5 352 1111",,,30709093998,
20195241,4200,"LABORATORIO BIOMEDICO DR. RAPELA S.","SN ARG",,"RAMÓN FALCÓN 2534",1,"CAPITAL FEDERAL","AR",,,,30630264010,"901-029883-"
20201447,4200,"DU PONT ARGENTINA S.R.L","SN ARG",,"ING BUTTY 240 PISO 10",1001,"CAPITAL FEDERAL","AR",,,,30501126965,"901-910418-"
20201752,4200,"ACCENTURE SRL","SN ARG",,"SAENZ PEÑA R. PTE. AV. 777",1110,"CAPITAL FEDERAL","AR",43188500,,,33610006189,"901-935144-"
20252153,4200,"BANDAX ARGENTINA S.A.","SN ARG",,"EDISON 2439",1640,"BUENOS AIRES","AR",47175151,,,30708264381,9010653730
20252364,4200,"INSTALNET SRL","SN ARG",,"AZOPARDO 770 PISO16 OFICINA 1608",1107,"CABA","AR",37508729,,,30710161301,
20252404,4200,"EXEO IT S.R.L.","DAN ARG",,"GIRIBONE 895 2 A",1427,"CAPITAL FEDERAL","AR",1161161536,,,30710608578,"1180216-02"
20255364,4200,"TALLER ORGANIZACIONAL S.R.L.","SN ARG",,"CHARLONE 738",1427,"CAPITAL FEDERAL","AR",47928067,,,30711441154,
20275437,4200,"TANGO SPORTS TEAM S.R.L","SN ARG",,"AV PASEO COLON 746 1",1063,"CAPITAL FEDERAL","AR",,,,30716306026,
20275472,4200,"OXIMETAL S.A.","SN ARG",,"AV. LIBERTADOR 1638",1638,"VICENTE LOPEZ","AR",,,,33538190999,"902-420200-"
20275473,4200,"EURO SWISS S.A.","SN ARG",,"INDALECIO GOMEZ 3938",1672,"VILLA LYNCH","AR",,,,30708953896,
20275714,4200,"PIOLOW S.A.","SN ARG",,"AV. DEL LIBERTADOR 7324 16A",1429,"CABA","AR","11 2275 8562",,,30711409080,
20275865,4200,"PROSEIND SA","SN ARG",,"26 DE AGOSTO 1053",2000,"ROSARIO","AR","0341 4552017",,,30707009892,
20277135,4200,"BONDACOM S.R.L.","SN ARG",,"ORTEGA Y GASSET JOSE 1957",1426,"CABA","AR",1152638284,,,30711367140,"1215909-03"
20285709,4200,"YOU ARE THE PRINCESS S.L.","SN ARG",,"PLAZA DE ORIENTE 3",28013,"MADRID","ES",,,,,
20285362,4200,"ARES ELECTRONICA INDUSTRIAL S.A.","SN ARG",,"GRAL LAS HERAS 3784",1603,"VILLA MARTELLI","AR",47606060,,,30598729510,"EXENTO"
20285363,4200,"ELECTRICIDAD SAN MARTIN SOCIEDAD AN","SN ARG",,"AV. SAN MARTIN 1621",1704,"BS AS","AR",,,,30589052346,"902-888095-"
20285365,4200,"INATEC SA","DAN ARG",,"CHACABUCO 431",1069,"CAPITAL FEDERAL","AR",43310700,,,30707233369,"EXENTO"
20285366,4200,"ALBERTENGO SEBASTIAN JUAN","SN ARG",,"ARENALES 3532",1425,"CAPITAL FEDERAL","AR",92241671255,,,20920659196,"EXENTO"
20285369,4200,"DRIMER CHOCOLATES","SN ARG",,"PLAZA 3553",1430,"BS AS","AR",,,,27054302644,9019803606
20285370,4200,"MANDERLY SA","SN ARG",,"TUCUMAN 117 PISO 8",1049,"C.A.B.A","AR",50916600,,,30661209263,"EXENTO"
20285692,4200,"MEDICIONES TERMICAS SRL","SN ARG",,"BOLAÑOS 86","1407JPB","BS AS","AR","114 674 5300",,,30711356645,"EXENTO"
20285694,4200,"CORIGLIANO NICOLAS ESTEBAN","SN ARG",,"BONPLAND 1248",1414,"CABA","AR",47757296,,,20275925242,"EXENTO"
20285695,4200,"GONZALO ESPINOSA PAZ","SN ARG",,"URUGUAY 763 PISO 5",1015,"CABA","AR",537924444,,,20169041912,"EXENTO"
20285702,4200,"COOPERATIVA DE TRABAJO MADYGRAF LTD","SN ARG",,"RUTA PANAMERICANA KM 36700",1619,"GARÍN, ESCOBAR","AR",443312,,,33714651779,"EXENTO"
20285704,4200,"HYDRAIR SA","SN ARG",,"CALLE 29 (EMILIO ZOLA) NRO 6986",1655,"JOSE LEON SUAREZ","AR",47200387,,,30710138563,"EXENTO"
20285705,4200,"LEBENBAUM HERMAN ERICO","SN ARG",,"FRAGATA PRESIDENTE SARMIENTO 2239","C1416CB","CAPITAL FEDERAL","AR",45812227,,,20218820108,"901-2021882"
20285708,4200,"JARDIN DEL PILAR SA","SN ARG",,"SANTA FE 1971",1123,"CABA","AR",57890783,,,30584705457,
20285715,4200,"PAULAMAR SOCIEDAD ANONIMA","SN ARG",,"AV. OLLEROS 3540 2C",1429,"CABA","AR",,,,30587724436,30587724436
20285716,4200,"OLIVIERI ELBIO HERNAN","SN ARG",,"ESTRADA 532",2804,"CAMPANA","AR",3489482574,,,20211644150,"EXENTO"
20285717,4200,"ARMATH SRL","SN ARG",,"VIEYTES 1052, CABA",1275,"BARRACAS","AR",1135923679,,,30712037055,"EXENTO"
20285722,4200,"REFRIGERACION DEL VISO","SN ARG",,"AV EDUARDO MADERO 546",1669,"DEL VISO","AR",27943265,,,24265891019,841250788
20285725,4200,"PREVENCION Y RESPUESTA SRL","SN ARG",,"RAMÓN FALCÓN 1632 1B",1406,"BUENOS AIRES","AR",53539470,,,30711813647,"EXENTO"
20285728,4200,"NOEL LEONARDO OSCAR","SN ARG",,"AV SAN JUAN, 2998",1232,"CABA","AR",65636929,,,20226449621,9010783450
20285731,4200,"TASSI IGNACIO","SN ARG",,"SARMIENTO 675",1625,"BELEN DE ESCOBAR","AR",4421534,,,20280123227,"EXENTO"
20194744,4200,"J & B SOLUTIONS SA","SN ARG",,"TRES ARROYOS 3852",1407,"CAPITAL FEDERAL","AR","4 658 5656","4 740 1718",,30708374756,
20195028,4200,"FAMIQ S.A.","SN ARG",,"AV. SAN MARTIN 4723",1417,"CAPITAL FEDERAL","AR",,,,30538068841,9019889627
20194922,4200,"TELMEX ARGENTINA SA","SN ARG",,"AZOPARDO 1388",1107,"CAPITAL FEDERAL","AR",40003880,,,33695098419,9010321980
20195418,4200,"SEND S A","SN ARG",,"BALCARCE 337",5501,"GODOY CRUZ","AR",,,,30707517103,467996
20195825,4200,"INTECH GROUP S.R.L.","SN ARG",,"GALICIA 2946 P:5",1416,"CAPITAL FEDERAL","AR",,,,30710553722,30710553722
20195795,4200,"KPMG","SN ARG",,"BOUCHARD AV. 710 P 01",1106,"CAPITAL FEDERAL","AR",,,,30614587144,9019361872
20195567,4200,"ENDRESS + HAUSER ARGENTINA S A","SN ARG",,"AV. RUIZ HUIDOBRO 4771",1430,"CAPITAL FEDERAL","AR",,,,30691700107,9011976123
20195550,4200,"SEW EURODRIVE ARG. S.A.","SN ARG",,"RºPANAMERICANA KM 37,5 LOTE 35",1619,"GARIN","AR",,,,30676631077,9011623305
20195027,4200,"SGS ARGENTINA S.A.","SN ARG",,"TRONADOR 4890",1430,"CAPITAL FEDERAL","AR",,,,30547110427,9019192141
20195558,4200,"ZURICH ASEGURADORA ARGENTINA S.A.","SN_ARG",,"AV DEL LIBERTADOR 6350",1428,"CAPITAL FEDERAL","AR",,,,30500036393,9019136368
20195364,4200,"HDI. SEGUROS. S.A.","SN ARG",,"PERON 650 P.5°",1038,"CAPITAL FEDERAL","AR",,,,30500017011,9019176977
20195545,4200,"SULLAIR ARGENTINA S.A.","SN ARG",,"GONCALVEZ DIAS 1145",1276,"CAPITAL FEDERAL","AR",,,,30576721710,
20195864,4200,"HOLISTIC RELOCATION SRL","SN ARG",,"COSPODES 3249 PB 11",1426,"CAPITAL FEDERAL","AR",,,,30709886173,"901447196Ñ8"
20195756,4200,"INTECH COMPUTACION S.R.L.","SN ARG",,"GALICIA 2946 P 5",1416,"CAPITAL FEDERAL","AR",,,,33620035799,9019366145
20195033,4200,"FLC SA","SN ARG",,"DIAZ VELEZ 3780",1636,"BUENOS AIRES","AR",0,,,30676573379,8732205
20194975,4200,"GUSTAVO GRINBERG","SN ARG",,"ORTIZ DE OCAMPO 2655, PISO 3 DPTO 1",1425,"CAPITAL FEDERAL","AR",,,,20234311647,20234311647
20194707,4200,"CHUBB SEGUROS ARGENTINA S.A.","SN ARG",,"AV. LEANDRO ALEM 855 P 19",1008,"CAPITAL FEDERAL","AR",,,,30500016260,9019178999
20194667,4200,"CASA EL TUCUMANO S.A.","SN ARG",,"TALCAHUANO 241 PB",1013,"CAPITAL FEDERAL","AR",,,,30540920822,9011728099
20195220,4200,"TELEFONICA MOVILES ARGENTINA SOCIED","SN ARG",,"CORRIENTES 707",1043,"CAPITAL FEDERAL","AR",1151421550,,,30678814357,9011784254
20195546,4200,"ASOC. ARG. CODIF. PROD.COMERC","SN ARG",,"VIAMONTE 342 P 1",1053,"CAPITAL FEDERAL","AR",,,,30656017631,11862978
20194495,4200,"INSTITUTO NACIONAL DE TECNOLOGIA IN","SN ARG",,"ALEM LEANDRO N AV 1067 PISO 07",6032,"CAPITAL FEDERAL","AR",1147246200,,,34546687068,
10000005,4200,"DANONE SA SPAIN","HO GOLDEN",,"CALLE BUENOS AIRES 21",8029,"BARCELONA","ES",,,"ESA17000852","A17000852",
20194709,4200,"TATE & LYLE ARGENTINA S.A.",,,"CALLAO 966 P 8° ""B""",1023,"CAPITAL FEDERAL","AR",,0,,30707256598,9010444911
20194697,4200,"ESTAB. GRAFICO IMPRESORES S.A.",,,"TUYUTI 6616",1408,"CAPITAL FEDERAL","AR",,,,30500439617,9021416951
20195370,4200,"INTERNATIONAL FLAVORS & FRAGRANCES",,,"EINSTEIN S/NRO",1619,"GARIN","AR",2121,0,,30529952089,
20195720,4200,"INGREDION ARGENTINA SOCIEDAD ANONIM",,,"CAZADORES DE COQUIMBO 2860",1035,"CAPITAL FEDERAL","AR","5544 8505","5544 8500",,30629416249,9019426573
20195717,4200,"INMOBAL NUTRER S A",,,"DR. ROBERTO UNCAL 673",3260,"C.DEL URUGUAY","AR",3442441001,0,,30580528933,9019621297
20195571,4200,"S.G.E. S.R.L.",,,"TRES ARROYOS 329",1706,"HAEDO","AR",,,,30619396975,9019291138
20241466,4200,"DSM NUTRITIONAL PRODUCTS MÉXICO,SA",,,"KM. 22.5 CARRETERA GUAD-EL SALTO",45680,"EL SALTO","MX",33614785814,"33 366 860 58",,"DNP010613GN4",
20195609,4200,"ALSINA PARKING S.R.L.","SN ARG",,"ALSINA 715",1091,"CAPITAL FEDERAL","AR",,,,30540064292,10826810
20195487,4200,"AUTORIDAD DEL AGUA","SN ARG",,"CALLE 5 N° 366",1900,"la plata","AR",,,,33707441319,
540000957,4200,"MONDOTTE CAROLINA","DAN ARG",,"PANAMERICANA Y GRAL SAVIO",1619,"Garin","AR",,,,27240302115,
20195159,4200,"INTERTRADE S.A.","SN ARG",,"PTE ROQUE SAENZ PENA 2032",3080,"ESPERANZA","AR","427 362",,,30641297727,9217481308
20195515,4200,"HUMAN STADIUM S.R.L.","SN ARG",,"MAIPU 1210 8 P",1006,"CAPITAL FEDERAL","AR",,,,30714755109,9016319903
20195525,4200,"ORTEGA CARLOS OMAR","SN ARG",,"LAVALLE 1459 DEPTO 37",1048,"CAPITAL FEDERAL","AR",,,,20202071032,
20195183,4200,"DE SPIERER CARLOS FABIAN Y GOMEZ RI","SN ARG",,"VEDIA 2289",1429,"CAPITAL FEDERAL","AR",,,,33712341489,
20195367,4200,"M E R C K S.A","SN ARG",,"TRONADOR 4890 P 5°",1430,"CAPITAL FEDERAL","AR",,0,,30503832565,9019137216
20195794,4200,"BRANDING MERCHANDISING S.A.","SN ARG",,"A. MOREAU DE JUSTO 1848 4° OF.26",1106,"CAPITAL FEDERAL","AR",,,,30691182548,9010327288
20195745,4200,"CASIBA S.A.","SN ARG",,"AV. MITRE 3976",1678,"CASEROS","AR",,,,30502893188,9028700273
20195375,4200,"MEDITECNA S.R.L.","SN ARG",,"CAMARONES 1720",1416,"CAPITAL FEDERAL","AR",,,,30661278354,
20195208,4200,"VALOT SA","SN ARG",,"MAURIN 6936 - POCITO ABERASTAIN",5429,"SAN JUAN","AR",,,,30603808238,9186500677
20195737,4200,"M.DODERO CIA. GRAL. DE SERVICIOS S.","SN ARG",,"A. PALACIOS 1339",1296,"CAPITAL FEDERAL","AR",3022746,,,30640500235,30640500235
20195557,4200,"CAMARA DE INDUSTR. DE PROD. ALIMENT","SN ARG",,"AV. L.N.ALEM 1067 P12 DTO.34",1001,"CAPITAL FEDERAL","AR",43121929,,,30526635988,
20194489,4200,"TELEFONICA DE ARGENTINA S.A.","SN ARG",,"DEFENSA 143 P.11",1065,"CAPITAL FEDERAL","AR",,,,30639453975,9019517749
20195735,4200,"FOOD CONTROL S A","SN ARG",,"S.DEL ESTERO 1154 P.B.",1075,"CAPITAL FEDERAL","AR",49568500,,,30628392869,9011880218
20195549,4200,"DAMIANICH Y SONS S.R.L.","SN ARG",,"CNEL.TEODORO GARCIA 1875/87",1704,"L.DEL MIRADOR","AR",,,,30658707090,9019908863
20195552,4200,"HADERNE RUBEN OSCAR","SN ARG",,"LAUTARO 646",1406,"CAPITAL FEDERAL","AR",,,,20041633604,9745734
20195734,4200,"GEARVEL S A I Y C","SN ARG",,"GENERAL HORNOS 1548",1272,"CAPITAL FEDERAL","AR",,,,30570044067,9019232213
20194827,4200,"CONTROL PARA LA INDUSTRIA SOCIEDAD","SN ARG",,"BAUNESS 2660",1431,"CAPITAL FEDERAL","AR",,,,30604479262,9019851400
20195554,4200,"LOBOV Y CIA S A","SN ARG",,"GIRADOT 135",1427,"CAPITAL FEDERAL","AR",,,,30541677220,9011709516
20194679,4200,"ADMINISTRACION NACIONAL DE ADUANAS","SN ARG",,"AZOPARDO 350",1107,"CAPITAL FEDERAL","AR",,,,30546676591,
20195211,4200,"HELLMANN WORLDWIDE LOGISTICS SA","SN ARG",,"RECONQUISTA 656",1003,"CAPITAL FEDERAL","AR",,,,30676589275,9011583217
20195218,4200,"GELHORN JUAN HUGO","SN ARG",,"JUAN RAMON ESTOMBA 725",1427,"CAPITAL FEDERAL","AR",,,,20160209888,9011599211
20194849,4200,"PREBECON SRL","SN ARG",,"TACUARI 761",1071,"CAPITAL FEDERAL","AR",,,,33638497129,76480703
20195759,4200,"MICROFILTER S.A.","SN ARG",,"CRISOLOGO LARRALDE 5430",1875,"CAPITAL FEDERAL","AR",,,,30660663270,
20195403,4200,"ALBERTO PASTORINO S.A.","SN ARG",,"ALSINA 440 1°P. OF. A, B Y C",1087,"CAPITAL FEDERAL","AR",,,,30529935850,53729902
20195762,4200,"DIVERSEY DE ARGENTINA S.A.","SN ARG",,"RECONQUISTA 360 P.6°",1003,"CAPITAL FEDERAL","AR",,,,30697276676,9010212425
20195407,4200,"UNIVERSAL CARGO S.R.L.","SN ARG",,"AV. BELGRANO 990 P.6º A",1092,"CAPITAL FEDERAL","AR",,,,30608991235,67856308
20195065,4200,"TECNOLOGIA ELECTRONICA SRL","SN ARG",,"MONTIEL 1336",1408,"CAPITAL FEDERAL","AR",46443030,,,30695445365,9011990744
20194519,4200,"SENSIENT COLORS S.A.","SN ARG",,"JOSE MARMOL 824",1236,"CAPITAL FEDERAL","AR",,,,30700951592,9010376888
20195226,4200,"UNIVERSIDAD DE BUENOS AIRES","SN ARG",,"CORRIENTES 2038",1053,"CAPITAL FEDERAL","AR",,,,30546666561,
20195793,4200,"SIGONLINE S.A.","SN ARG",,"CERRITO 1540 PISO 4",1010,"CAPITAL FEDERAL","AR",1544776697,,,30707208836,9010721826
20194537,4200,"RED SIS S.R.L.","SN ARG",,"HIPOLITO IRIGOYEN 1427",1089,"CAPITAL FEDERAL","AR",,,,30708902507,114766310
20195814,4200,"SERVICE INFORMATION TECHNOLOGY SRL","SN ARG",,"AV CORRIENTES 800 PISO 37 OF 101",1008,"CAPITAL FEDERAL","AR","011 5277 3555",,,33710239369,9012665323
20195808,4200,"DIRECCIONA SA","SN ARG",,"MAIPU 255 P.11",1084,"CAPITAL FEDERAL","AR",,,,30709935328,117064311
20194743,4200,"L&D COMPUTACION S.R.L","SN ARG",,"LOS PATOS 1686",1686,"HURLINGHAM","AR",46653316,46653316,,33710550269,9024685198
20195628,4200,"AMTRADE S.R.L.","SN ARG",,"LA HORQUETA 1176",1842,"MONTE GRANDE","AR",1144875200,1144873942,,30709082856,9028275253
20195453,4200,"NEXPROM S.A.","SN ARG",,"OLLEROS 2865 PB",1426,"CAPITAL FEDERAL","AR",,,,33708205759,90100640882
20194566,4200,"FRALI S.A.","SN ARG",,"LAVALLE 1118 2D",1048,"CAPITAL FEDERAL","AR",,,,30632219055,9011796511
20194756,4200,"DATA WIRE S.A.","SN ARG",,"AV VELEZ SARFIELD 1648",1285,"CAPITAL FEDERAL","AR","4 301 6169",,,30711217017,9015404109
20195457,4200,"BETTI MATIAS VALENTIN","SN ARG",,"SANCHEZ DE LORIA 593 P 3 DPTO 7",1173,"CAPITAL FEDERAL","AR",,,,20229443098,20229443098
20195290,4200,"ESTUDIO BAU & SOCIOS CONTADORES PUB","SN ARG",,"CARLOS PELLEGRINI 1135",1009,"CAPITAL FEDERAL","AR",,,,30711955921,9015764289
20195135,4200,"ZETTALAN S.A.","SN ARG",,"PIEDRAS 338 PISO 1 OFICINA 10",1170,"CAPITAL FEDERAL","AR","5411 53658966",,,30712114084,9015790159
20195411,4200,"SEGUROS SURA S.A","SN ARG",,"ALSINA 756",1056,"CAPITAL FEDERAL","AR",,,,30500000127,9019171572
540001026,4200,"PRADO EMILIANO ARIEL","DAN ARG",,"MORENO 877",1091,"CAPITAL FEDERAL","AR",,,,20302514330,
540001028,4200,"GOMEZ GUSTAVO JAVIER","DAN ARG",,"MORENO 877",1091,"CAPITAL FEDERAL","AR",,,,20163161827,
540001032,4200,"ALIFANO GLADYS BEATRIZ","DAN ARG",,"AV. GRAL. SALVIO Y PANAMERICANA",1619,"Garin","AR",,,,27215901748,
540001104,4200,"DAPENA MARTIN","DAN ARG",,"TERRADA 4391 PB B",1419,"CAPITAL FEDERAL","AR",,,,23319260919,
540001109,4200,"BERTELLO INES","DAN ARG",,"MORENO 877",1091,"CAPITAL FEDERAL","AR",,,,27379324865,
540001110,4200,"MATTSON FEDERICO","DAN ARG",,"MORENO 877",1091,"CAPITAL FEDERAL","AR",,,,20363311327,
10000477,4200,"BLEDINA","DUPLICATIO","BP 432","383 RUE PHILIPPE HERON",69654,"VILLEFRANCHE SUR SAONE","FR","04 74 62 63 64","04 74 60 63 32",,,
10006283,4200,"DANONE BABY NUTRITION COLOMBIA","HO GOLDEN",,"Cr 7 155C - 30 Piso 28 Torre E Nor",,"BOGOTA","CO",,,,,
10000006,4200,"DANONE SA","HO GOLDEN",,"17 RUE DES DEUX GARES",92500,"RUEIL MALMAISON","FR","33 1 49 48 51 30","33 1 49 48 57 36","FR27552032534",55203253400646,
20251868,4200,"CHEMICAL CENTER S R L",65559,,"FRANCIA 4755",1605,"MUNRO","AR",,,,30654560354,"901-979322-"
20201589,4200,"EL DORADO SOCIEDAD ANONIMA",,,"RUTA 34 KM.44",2142,"SALTO GRANDE","AR",494280,,,30617907530,9217571725
20195090,4200,"EMPRESAS DE SERVICIOS INTEGRALES TE",,,"PTE LUIS SAENZ PEÑA 1268",1135,"CAPITAL FEDERAL","AR",43616894,43044103,,30648155324,9010513480
20195044,4200,"JENCK S.A.",,,"CIUDAD DE LA PAZ 583",1426,"CAPITAL FEDERAL","AR",,,,30632884385,9019463201
20209502,4200,"KINDERLAND JUGUETES S.A.","DAN ARG",,"ALVARADO 478",1704,"BUENOS AIRES","AR",44647217,,,30710655479,30710655479
20194710,4200,"MAQUINARIAS F.B. S.R.L.",,,"POZNAN 932",1665,"JOSE C PAZ","AR",,,,33707365159,9027816961
20250885,4200,"MEDINA CARLOS MATIAS",83997,,"SANTA CLARA 1829",6700,"LUJAN","AR",,,,20277976650,"20-27769766"
20286377,4200,"INGENIERIA ROGANN SRL","SN ARG",,"BME. MITRE 1221 - 7MO B",1036,"CIUDAD AUTONOMA BUENOS AIRES","AR",,,,30624252302,
20286384,4200,"PEZCON SRL","SN ARG",,"LOS CEREZOS 1368",1625,"ESCOBAR","AR",4493679,,,30709830240,
20202243,4200,"ETHICS COMPUTERIZED DIAGNOSTIC SYST",,,"BAR KOCHVA 23",5126015,"BNEI BRAK","IL",36161111,,,,
20255972,4200,"GRIZZLY S TRAVEL AGENCY SA","SN ARG",,"SAN MARTIN 523 3ª E",1004,"CAPITAL FEDERAL","AR",1152637898,,,30612486960,30612486960
20230221,4200,"ALURRALDE JASPER S.A.","SN ARG",,"AV CALLAO 1046 P 4",1023,"CAPITAL FEDERAL","AR",52786800,,,30696859988,9010775936
20195273,4200,"GRAFICA FUTURA S.A.","SN ARG",,"HIPOLITO YRIGOYEN 4059",1208,"CAPITAL FEDERAL","AR","4 958 0022",,,30707913602,107483707
20202189,4200,"NEOLOGICS SRL","SN ARG",,"AV CASEROS 3350 9B",1293,"CAPITAL FEDERAL","AR",51997900,,,30708197811,9012143418
20101562,4200,"KYOWA HAKKO USA","KYOWA HAKK",,"10016 600 Third Avenue, 19th floor",600618,"New York","US",,,,,0
20202051,4200,"COMPANY MTA S.A.","SN ARG",,"DEFENSA 1126",1065,"CAPITAL FEDERAL","AR",,,,30710480520,
20251410,4200,"GASPES JUDITH","SN ARG",,"SAN MARTIN 3995",8400,"BARILOCHE","AR",,,,27182118651,"27-18211865"
20286930,4200,"LENOVO ARGENTINA SRL","SN ARG",,"AVDA. DEL LIBERTADOR 7208 6°PISO",1429,"CAPITAL FEDERAL","AR",49395168,,,30714731382,
20251438,4200,"SUCARRAT MARIA JOSE","SN_ARG",,"MOLDES 3021",1429,"CAPITAL FEDERAL","AR",,,,27227828957,
20279358,4200,"REYNOLDS GUSTAVO","SN ARG",,"MORENO 877",1078,"CAPITAL FEDERAL","AR",1138616930,,,20132351504,20132351504
20195401,4200,"PLAYA CONSTRUCCIONES S.R.L.",,,"JULIAN QUINTANA 69",7130,"CHASCOMUS","AR",425815,,,30633820488,"30B94633820"
20195604,4200,"TECNOCONSULT S.A.",,,"LOTE 492-493 S/N",7130,"CHASCOMUS","AR",420046,,,30708901292,9028234093
20290016,4200,"GREENTEC ARGENTINA SRL","SN ARG",,"CULPINA 522 PISO B",1406,"CIUDAD AUTONOMA BUENOS AIRES","AR",52632315,,,30714462934,
20276424,4200,"FEDERATION OF MIGROS COOPERATIVES","SQTS",,"Gruenaustrasse 2",8953,"Dietikon","AR",41585771080,,"CHE-105.829.940",,
20290077,4200,"WASSERBERG S.A.C.I.F. E I.","SN ARG",,"ZABALA 3837",1427,"CAPITAL FEDERAL","AR",45511430,,,30548105583,
20195577,4200,"BARTRADE SOCIEDAD DE RESPONSABILIDA",,,"MORENO 877",1091,"CAPITAL FEDERAL","AR",,,,30701829650,100682208
20290088,4200,"GUMMA SRL","SN ARG",,"MONROE 5873",1431,"CAPITAL FEDERAL","AR",45711551,,,30637253154,
20195870,4200,"IR. Y EM S.A.","SN ARG",,"AV. RIVADAVIA 20532",1712,"CASTELAR","AR",,,,33712021859,33712021859
440011276,4200,"YELICH, RICARDO",,,"MORENO 877",1091,"CAPITAL FEDERAL","AR",,,,20283411649,
20276449,4200,"OSDE FILIAL METROPOLITANA","DAN ARG",,"BELGRANO 827",5500,"MENDOZA","AR",,,,30546741253,30707013431
20276154,4200,"OPDEA","DAN ARG",,"IRIGOYEN BERNARDO DE 546",1072,"CABA","AR",,,,33548335359,33548335335
20244450,4200,"ATILRA","DAN ARG",,"BERLIN 50",1002,"LONGCHAMPS","AR",,,,34533771795,
20194550,4200,"CGA CONSULTORES EN GESTION AMBIENTA","SN ARG",,"TTE GRAL JUAN D PERON 725 PISO 07",1038,"CAPITAL FEDERAL","AR",1143271978,,,30686240130,9010311871
20276145,4200,"AFIANZADORA LATINOAMERICANA COMPAÑÍ","SN ARG",,"25 DE MAYO 81 PISO 4",1002,"CAPITAL FEDERAL","AR",43312320,,,30709187941,9012112005
20209643,4200,"GOBIERNO DE LA CIUDAD DE BS AS","DAN ARG",,"RIVADAVIA 524",1002,"CAPITAL FEDERAL","AR",,,,34999032089,
20217824,4200,"BANCO DE LA PROVINCIA DE BS AS","DAN ARG",,"BARTOLOME MITRE 457",1036,"CAPITAL FEDERAL","AR",,,,33999242109,
20292733,4200,"JLA ARGENTINA S.A.","SN ARG",,"AV ITALIA 1150",5809,"GENERAL CABRERA","AR",,,,30684013609,
20279485,4200,"DISPROFARMA S.A.","SN ARG",,"AV CASTAÑARES 3222",1406,"CAPITAL FEDERAL","AR",,,,30589508072,"901-910836-"
20213388,4200,"CENCOSUD S A","SN ARG",,"Parana 3617",1640,"MARTINEZ","AR",47331000,,,30590360763,"902-939587-"
20090116,4200,"NATUREX","FOUACHAT",,"250 RUE DE PIERRE BAYLE",84911,"AVIGNON CEDEX 9","FR",33490239689,33490237340,"FR47384093563",38409356300029,
20250472,4200,"AMPIL",,,"BERLIN 50",1002,"LONGCHAMPS","AR",,,,30589957837,
20291716,4200,"MONASTERIO TATTERSALL S.A.","SN ARG",,"RIVADAVIA 97",6555,"DAIREAUX","AR",43431856,,,33506942069,33506942069
20293735,4200,"ASYTEC ASCENSORES S.R-L","SN ARG",,"AV LOS QUILMES 902",1874,"BERNAL","AR",1143880038,,,30710720475,
20280226,4200,"FULL CONGRESS DIVISION TURISMO S.R.","SN ARG",,"ESMERALDA 920 P 28 OFICINA 05",1007,"CAPITAL FEDERAL","AR",1170780500,,,33710787439,"1182996-06"
20291736,4200,"MEDIBACARE SA","SN ARG",,"LAVALLE 362 3°",1047,"CAPITAL FEDERAL","AR",52191784,,,30715821059,
20290462,4200,"GYMPASS S.A.S.","DAN ARG",,"ARROYO 880 PISO 2",1007,"CIUDAD AUTONOMA BUENOS AIRES","AR",5511958624825,,,30715754262,
20217825,4200,"BANCO SANTANDER RIO","DAN ARG",,"BARTOLOME MITRE 480",1036,"CAPITAL FEDERAL","AR",43413126,,,30500008454,
20294721,4200,"TACCO CALPINI SA","SN ARG",,"SUIPACHA 207 PISO:2 DPTO:210",1008,"CAPITAL FEDERAL","AR",,,,30663271985,
20293877,4200,"BENCARDINO HERNAN SANTIAGO","SN_ARG",,"GOB VALENTÍN VERGARA 2284 4TO B",1602,"FLORIDA","AR",1153890270,,,20211048744,
20280293,4200,"FREE AGENCY BTL SRL","SN ARG",,"AV. REGIMIENTO DE PATRICIOS 176",1265,"CAPITAL FEDERAL","AR",43004422,,,30714148369,11111
20295212,4200,"PELLEGATA NOELIA LILIANA CARMEN","SN ARG",,"MORENO 877",1041,"CAPITAL FEDERAL","AR",,,,27256880267,
20295312,4200,"BIOINGEPRO S.R.L.","SN ARG",,"AV. ALVAREZ THOMAS 198 PISO 4 OFICI",1427,"CAPITAL FEDERAL","AR","11 3138 3232",,,30709715980,
20291809,4200,"MARIA MAGDALENA SERRANO","SN ARG",,"ROOSEVELT 2229 1ER PISO",1428,"CIUDAD AUTONOMA BUENOS AIRES","AR",1549700880,,,27231243165,27231243165
20195560,4200,"OFFICENET S.A.","SN ARG",,"Carlos Pellegrini N° 887",1009,"CAPITAL FEDERAL","AR",,,,33692148229,9011916819
20297230,4200,"SABELLA S.R.L","SN ARG",,"AVELINO DÍAZ 2150",1406,"CAPITAL FEDERAL","AR",,,,30715214241,
20252747,4200,"XENOBIOTICOS S R L","SN ARG",,"AV. ALBARELLOS 2627",1419,"CAPITAL FEDERAL","AR",,,,33657603509,"901-985317-"
20294194,4200,"CANO ROSA GRACIELA","SN ARG",,"MORENO 877",1091,"CAPITAL FEDERAL","AR",,,,27062045332,
20217104,4200,"FUNDACION DANONE","SN ARG",,"MORENO 877",1091,"C.A.B.A","AR",0,,,30710185006,
20194527,4200,"TESTO ARGENTINA S.A","SN_ARG",,"YERBAL 5266 4to Piso",1407,"Capital Federal","AR",,,,30708031891,9010600150
20252845,4200,"UNISYS SUDAMERICANA SRL","SN ARG",,"AV ALICIA MOREAU DE JUSTO 270 PISO1",1107,"CAPITAL FEDERAL","AR",,,,34525505539,"901-917273-"
20297939,4200,"HUGO MIGUEL CLEMEUR","SN ARG",,"ESTADOS UNIDOS 2882",1227,"CABA","AR",1158379449,,,20129691078,
20298163,4200,"PERFIMAC S.R.L.","SN ARG",,"ROBERTO LAGE 1035 DPTO 3",1674,"SAENZ PEÑA","AR",,,,30714252808,
20194711,4200,"PORCIO GABRIELA ALEJANDRA","SN ARG",,"REMEDIOS DE ESCALADA 7280 -",1682,"MARTIN CORONADO","AR",1561413360,,,27265661683,107222406
20298817,4200,"PACKSOL S.R.L.","SN ARG",,"DABOVE 563",1712,"CASTELAR","AR","011 44894620",,,30708264845,
20282751,4200,"MAZZONI BARBARA","SN_ARG",,"LAVALLE 1206 3",1084,"CAPITAL FEDERAL","AR",43823990,,,27283258195,
20252710,4200,"PROMOVER PREVISIONAL SAS","SN ARG",,"TUCUMAN 1441",1045,"CABA","AR",,,,30715956019,"1548357-06"
20298567,4200,"EAP LATINA CORPORATION S.A.","DAN UY",,"RECONQUISTA 199",1003,"CAPITAL FEDERAL","AR",,,,30710814232,
20322062,4200,"ALGEIBA DEV SOLUTIONS","SN ARG",,"PARANA 771",1017,"CAPITAL FEDERAL","AR","11 39885519",,,30716484757,
20299133,4200,"XLS SOFTWARE S.A.","SN_ARG",,"GRECIA 4474 PISO 4 DPTO E",1429,"CAPITAL FEDERAL","AR","911 62467474",,,30716778211,
20300106,4200,"LATIN AMERICA POSTAL S.A","SN ARG",,"CHACABUCO 1580",1140,"CAPITAL FEDERAL","AR","4300 3100",,,30663150614,
20300574,4200,"SERVICIO GEOLOGICO MINERO ARGENTINO","SN ARG",,"AVDA GRAL PAZ 5445 ED 14 PREDIO INT",1425,"SAN MARTIN","AR",,,,30686314428,
20300591,4200,"CONSEJO PROFESIONAL DE INGENIERIA Q","SN ARG",,"AV JULIO A ROCA 584 - PISO 6",1067,"CIUDAD AUTONOMA DE BUENOS AIRES","AR",1125233561,,,30592568124,
20291036,4200,"APKARIAN SABRINA PAOLA","SN ARG",,"AZARA 140 PISO 5 CABA",1267,"CAPITAL FEDERAL","AR",0,,,27268873304,
20195198,4200,"EDENRED ARGENTINA SOCIEDAD ANONIMA","SN_ARG",,"ALFEREZ H BOUCHARD 4169-4191 PISO 7","B1605BNA","MUNRO","AR",1161716754,,,30623608677,9019386513
20252523,4200,"ZETECH S.A.","DAN ARG",,"AV ESTADO DE ISRAEL 4744",1185,"CAPITAL FEDERAL","AR",,,,30712207627,"30-71220762"
20300956,4200,"SOCIEDAD DE BOMBEROS VOLUNTARIOS","SN ARG",,"SAN LUIS 3777",1619,"GARIN","AR",3484473992,,,30667682858,
20217105,4200,"INGENIA CONTROL SRL","SN ARG",,"LANIN 174",1274,"CAPITAL FEDERAL","AR",,,,30715811312,
20301142,4200,"SIEMENS INDUSTRIAL","SN ARG",,"JULIAN SEGUNDO AGUERO 2830",1605,"MUNRO","AR",,,,33716578939,
20214209,4200,"BW COMUNICACIÓN INTERNA S.R.L.","SN ARG",,"AV CABILDO 666",1426,"CAPITAL FEDERAL","AR",53659666,,,30708679964,
20214540,4200,"FARLEYGREENE LIMITED","FARLEYGREE",,"SN Greywell Road, Hatch Indu","RG24 7NG","Mapledurwell","GB",,,,,
20301465,4200,"JM ORIBE COMUNICACIONES SRL","SN ARG",,"LARREA 1042 PISO 5 C",1117,"CAPITAL FEDERAL","AR",1554120205,,,30716675978,
20251556,4200,"SANCOR COOPERATIVA DE SEGUROS LTDA","SN ARG",,"KM 257 RUTA NACIONAL N° 34",2322,"SUNCHALES","AR",,,,30500049460,"92130-50004"
540001295,4200,"REGES BARBARA ESTEFANIA",,,"Av Panamericana y Gral Savio",1619,"GARIN","AR",,,,27398109495,
20328887,4200,"AUCATEK SRL","SN ARG",,"LAURENA FERRARI 919",1684,"EL PALOMAR","AR",1151911500,,,30709467340,
20201797,4200,"TECPEOPLE S.A.","SN ARG",,"TISCORNIA 855",1642,"SAN ISIDRO","AR",1140910673,,,30711190879,9015380487
20201611,4200,"PARADIGMA CONSULTORES ASOCIADOS SOC","SN ARG",,"COLONIA 25 PISO 2",1435,"CAPITAL FEDERAL","AR",,,,30680776195,9011688566
20281404,4200,"CONSEJO PROFES DE CCIAS ECONOMICAS","SN ARG",,"VIAMONTE 1549",1055,"CAPITAL FEDERAL","AR",43829200,,,33546663669,
20195581,4200,"DATCO S.A.","SN_ARG",,"SAN MARTIN 638",1004,"CAPITAL FEDERAL","AR",1136975091,,,30596116201,9019264621
20195831,4200,"LOGYT SUDAMERICANA S.R.L.","SN ARG",,"UGARTE 3610 PISO 2",1602,"MUNRO","AR",,,,30710295634,9015551267
20201912,4200,"MAINCAL SA","SN ARG",,"AV EVA PERON 1452 DPTO 54 55",2121,"PEREZ","AR",,,,30503938517,9217500902
20251489,4200,"HEUCHERT INGRID","SN ARG",,"MALABIA 2425 PISO 2",1631,"CAPITAL FEDERAL","AR",91169364094,,,27273081718,
20302910,4200,"INDUSTRIAL PHYSICS BEVERAGE &CANNIN","SN ARG",,"40 MCULLOUGH DRIVE",19720,"DELAWARE","US",525540940897,,,450508627,
20194699,4200,"OBIN SA","SN_ARG",,"HUGO DEL CARRIL 8890",1657,"PABLO PODESTA","AR",,,,30575198348,30575198348
20299700,4200,"MORANZONI JULIETA MARIELA","SN ARG",,"CHAJARÍ 4471",1430,"CAPITAL FEDERAL","AR",1550427883,,,27272170296,
540001245,4200,"JUAN IGNACIO POLSAK","SN ARG",,"MORENO 877",1091,"CAPITAL FEDERAL","AR","11 2307 3545",,,20385348887,
20303513,4200,"DINPE S.A.","SN ARG",,"RUTA NACIONAL Nº 40 ENTRE CALLES 5",5429,"POCITO","AR",,,,30612422474,
20304680,4200,"STEFANINI ARGENTINA S.R.L.","SN ARG",,"LAVARDEN 157 PISO 2 OFICINA 2020",1437,"CAPITAL FEDERAL","AR","54 11 6841 6161",,,30690953869,
20304753,4200,"CIELO TALENT SRL","SN ARG",,"AV. LEANDRO N. ALEM 928, PISO 7, DE",1001,"CABA","AR",,,,33715122419,
20305318,4200,"JUAN IGNACIO MONSERRAT","SN ARG",,"MIGUEL GOMEZ BAO 155",1852,"BURZACO","AR",,,,23255602349,
20305557,4200,"EHRLICH S.R.L.","SN ARG",,"COLOMBIA 1720",1824,"LANUS OESTE","AR",,,,30710768494,
20305822,4200,"BARAONA YANINA","SN ARG",,"ESCALADA 1200",1618,"EL TALAR PACHECO","AR","114 024 3632",,,27240236368,
20251634,4200,"3M ARGENTINA SACIFIA","SN ARG",,"COLECTORA OESTE DE PANAMERICANA 576","C1619AAQ","GARIN-ESCOBAR","AR",,,,30529994393,"902-869654-"
540000277,4200,"MARIA EUGENIA VIDAL","SN ARG",,"FRAY CAYETANO RODDRIGUEZ 550",1406,"CAPITAL FEDERAL","AR",,,,27336206540,
540001248,4200,"MARIA VICTORIA REY","SN ARG",,"LACARRA 235 5 B",1407,"CAPITAL FEDERAL","AR",111554556311,,,27323442172,
20308147,4200,"INSTALACIONES DEL OESTE SRL","SN ARG",,"PASCUAL VINACCIA 446",1748,"BUENOS AIRES","AR",2374854160,,,30710048815,
20195061,4200,"R Y J FEIJOO SA","SN ARG",,"LAVALLE 4827",1603,"VILLA MARTELLI","AR",,,,30654654774,9019794358
20315739,4200,"AGRINEA SAS","SN ARG",,"HERRERA 5070",3300,"POSADAS","AR","0376 459682",,,30716537230,
20311298,4200,"BRTZ SA",,,"Von Wernicke 3038",1642,"BUENOS AIRES","AR",541147353000,,,30717005429,
20310902,4200,"PROOFLINE SA","SN ARG",,"SAN JUAN 2036",2000,"ROSARIO","AR",543412389802,,,30711186502,
20333073,4200,"CONSOLID S.R.L","SN ARG",,"PARAGUAY 866 5TO A",1057,"CAPITAL FEDERAL","AR",,,,30710996608,
540001290,4200,"MARTINEZ FRANCISCO",,,"MORENO 877",1091,,"AR",1140897624,,,20399214247,
20195348,4200,"HOTELES Y GESTION SRL","SN ARG",,"LIBERTAD 1041 4 B",1012,"CAPITAL FEDERAL","AR",48719400,,,30715098306,30715098306
20310283,4200,"FUNDACION ENCONTRARSE EN LA DIVERSI","SN ARG",,"LAMBARE 870",1185,"CAPITAL FEDERAL","AR",0,,,30714405574,
20312519,4200,"MARIA ELISA ARMINDA GRANDA","SN ARG",,"PARANÁ 275 1° PISO OF. 1",0,"CABA","AR",0,,,27128063116,
20312520,4200,"VALERIA LILIANA GONZALEZ","SN ARG",,"AV. LEBENSHON 2099",1661,"BELLA VISTA","AR",0,,,27290137905,
20312521,4200,"BACALONI GEORGINA","SN ARG",,"CHACABUCO 195",1876,"BERNAL","AR",,,,27262734078,
20195133,4200,"ORTUSTEN S.A.C.I.F","SN ARG",,"AV DE LOS ESTUDIANTES 151",1718,"BUENOS AIRES","AR",1154992373,,,30711065608,9026607319
20195029,4200,"ATLAS COPCO ARGENTINA SACI","SN ARG",,"EEUU 5335",1667,"MALVINAS ARGENTINAS","AR",,,,30515666148,9019192516
20250651,4200,"NICOLAS FRANSISCO NIETO","SN ARG",,"1 DE MAYO 935 LOMA HERMOSA",1657,"TRE DE FEBRERO","AR",,,,20126788771,"20-12678877"
20252628,4200,"ECOTECHOS SRL","SN ARG",,"DOMINGO MILLAN 853",1768,"VILLA MADERO","AR",,,,30714771694,
20195289,4200,"ENCENDER S.A.","SN ARG",,"URUGUAY 1134",1016,"CAPITAL FEDERAL","AR",,,,33707344089,9027833727
20314760,4200,"TRIKOM SRL","SN ARG",,"PTE. HIPOLITO YRIGOYEN 3469 . FLORI",1602,"BUENOS AIRES","AR",47610602,,,30710113021,
20314953,4200,"MILANESI MARIA JOSE","SN ARG",,"PIAGGIO 57 PB",1870,"AVELLANEDA","AR",0,,,27299041218,
20314957,4200,"EUROPE DIRECT GMBH","DAN ARG",,"METHMUEHLWEG 10B - DEUTSCHLAND",85467,"NEUCHING","DE",498123987981,,,,
20194828,4200,"ECOLAB ARGENTINA SRL",,,"CALLE 9 ESQUINA 2",1629,"PILAR","AR",,,,30643546449,9019583082
20315647,4200,"EFITECNICA GROUP S A","SN ARG",,"GENERAL JUAN LAVALLE 5061",1603,"VILLA MARTELLI","AR",1154682439,,,30709952613,
610026099,4200,"EXARIS","SN ARG",,"20 BD PIERRE RAUNET",94370,"SUCY-EN-BRIE","FR",,"09 56 19 32 12","FR58481853885",48185388500020,
20316822,4200,"J Y O RODAMIENTOS S.A.","SN ARG",,"PEDRO LAGRAVE 311",1629,"PILAR","AR",,,,30715854577,
20312205,4200,"RQ EMPRENDIMIENTOS SRL","SN ARG",,"GASPAR CAMPOS 460",1661,"BELLA VISTA","AR",1160791973,,,30708422874,
20310080,4200,"ETCHEPARE DANIEL LEONARDO MARTIN","DAN ARG",,"JARAMILLO 3109",1429,"CAPITAL FEERAL","AR",1163570822,,,20283836828,
20146774,4200,"PRIMARY PRODUCTS INGREDIENTS BRASIL","TATELYLE",,"FAZ AMALIA SN, 0",14270000,"SANTA ROSA DE VITERBO","BR","00 0000 0000",,,42361873000170,62200235911
20203270,4200,"CPT INFORMATICA S.A.","SN ARG",,"RIO LIMAY 1547",1278,"CAPITAL FEDERAL","AR","5080 7000",,,30710006489,"901-547417-"
20326793,4200,"CORESA ARGENTINA SA","SN ARG",,"ALVEAR 21",2760,"SAR ANTONIO DE ARECO","AR",2326455600,,,30688244753,
540001388,4200,"LOLA CRUZ HENESTROSA",,,"MORENO 877",1091,,"AR",,,,27377442747,
20317874,4200,"COLEGIO DE INGENIEROS DE LA PROVINC","SN ARG",,"ALMAFUERTE 2868",1754,"SAN JUSTO","AR",0,,,30623834170,
20317875,4200,"PASMAN MARIA CECILIA","SN ARG",,"CORDOBA AV. 1475 PISO:10 DPTO:D",1055,"CAPITAL FEDERAL","AR",0,,,27184620672,
20138042,4200,"BRETAGNE CHIMIE FINE",,,"BOISEL",56140,"PLEUCADEUC","FR",297269121,297269046,"FR48325148377",,
20319371,4200,"DINA ARGENTINA S.R.L","SN ARG",,"AZARA 1627",1269,"CAPITAL FEDERAL","AR","4302 1292",,,30711704066,
20320235,4200,"PROCOR INDUSTRIAL CORPORATION","SN ARG",,"10402 Bailey Rd.",28078,"CORNELIUS","US",7043602910,,,,
20252138,4200,"MEXPELL SA","SN ARG",,"AV. CHORROARIN 1290",1427,"CAPITAL FEDERAL","AR",,,,30708139412,"901-062570-"
20320393,4200,"TECNO COMPRESORES","DAN ARG",,"VEDIA 2289",1429,"CAPITAL FEDERAL","AR",47622533,,,30717373002,
20302215,4200,"OTERRA AS","FOUACHAT",,"AGERN ALLE 24",2970,"HØRSHOLM","DK",34690328737,,"DK35638784",,
20321489,4200,"ERICK ALEJANDRO OMS",23,,"LAVALLE 421",1047,"CIUDAD AUTONOMA DE BUENOS AIRES","AR",,,,23262675009,
20321467,4200,"COOPERATIE KONINKLIJKE AVEBE U A","DAN ARG",,"PRINS HENDRIKPLEIN 20","9641 GK","VEENDAM","NL",5491157469186,,"NL001083168B01",,
20321699,4200,"CAJA DE PREVISIÓN SOCIAL PARA AGRIM","SN ARG",,"48 NRO. 695",1900,"LA PLATA","AR",2214120600,,,30536477191,
20322044,4200,"BUILDING CONTROLS S.A","SN ARG",,"BILLINGHURST 437",1174,"CAPITAL FEDERAL","AR",53658686,,,30708714409,
20322047,4200,"ADHESINT SRL","SN ARG",,"INCLAN 3059",1754,"SAN JUSTO","AR",44417774,,,30685956892,
20322502,4200,"ALKO SRL","SN ARG",,"AV. DE LOS CONSTITUYENTES 3800",1651,"SAN MARTIN","AR",32203000,,,30602699826,
20322833,4200,"EGUES GRACIELA SILVIA","SN ARG",,"BORGES 2485 4 B",1425,"CAPITAL FEDERAL","AR",5491144794798,,,27187399381,
20295595,4200,"MARIA SOFIA SCOTTO","DAN ARG",,"BAEZ 286, DEPTO B",1426,"CAPITAL FEDERAL","AR",111561080864,,,27264120786,
20322835,4200,"TEMPEL S A","SN ARG",,"JUAN BAUTISTA ALBERDI 431",1636,"OLIVOS","AR",1148977184,,,30707191887,
20322844,4200,"MEDICINA PARA EMPRESAS S.A.","SN ARG",,"BUENOS AIRES 2080",2000,"ROSARIO","AR",,,,30708015616,
20327984,4200,"LINGUA S.A.S.","SN ARG",,"CAPDEVILA 3246 P 1 A",1431,"CAPITAL FEDERAL","AR",1130353527,,,30716719649,
20252235,4200,"NAKASE SRL","SN ARG",,"CALLE 49 (EX LIBERTAD) Nº 5764",1653,"VILLA BALLESTER","AR",,,,30709018422,"902-826247-"
540001484,4200,"JUAN PABLO ROBERTO GONZALEZ",,,"MORENO 877",1091,,"AR",,,,20296024725,
20327513,4200,"LUPROD S.R.L","DAN ARG",,"ANDONAEGUI 1267",1427,"CAPITAL FEDERAL","AR",0,,,30711502757,
20326457,4200,"MATIAS ANSELMO","DAN ARG",,"MORENO 877",1901,"CAPITAL FEDERAL","AR","15 50467287",,,20268174010,
20195268,4200,"BLANCO RODAMIENTOS S.A.","SN ARG",,"GUALEYGUACHU 1059",1407,"CAPITAL FEDERAL","AR",1145711731,,,30710791062,9012790354
20195031,4200,"EQUITECNICA S.A.","SN ARG",,"SÁNCHEZ DE LORIA 1838",1241,"CAPITAL FEDERAL","AR",1149124590,,,30593306115,9011550168
20327003,4200,"V.P.A. VAMOS PARA ADELANTE - ARGENT","SN ARG",,"AV ARGENTINA 893",1722,"MERLO","AR",1150314693,,,30716626551,
20327323,4200,"URBANBUCHNER SA","SN ARG",,"ESTADOS UNIDOS 505",1603,"VILLA MARTELLI","AR",47303113,,,30614946624,
20252010,4200,"ORANGE BUSINESS SERVICES ARGENTINA","SN ARG",,"ING BUTTY N° 240",1001,"CAPITAL FEDERAL","AR",,,,30696384114,"901-043245-"
20332562,4200,"LEIVA MARIA DE LOS ANGELES","SN ARG",,"PTE. PERON 89",1619,"GARIN","AR",1157985234,,,27307948902,
20328204,4200,"PROMOVER PREVISIONAL S.R.L.","DAN ARG",,"BERUTI 3351 PISO 12 D",1425,"CAPITAL FEDERAL","AR",53657442,,,30717621731,
440011189,4200,"LLOVERAS JOSE",,,"MORENO 877",1091,"CAPITAL FEDERAL","AR",,,,20928728049,
20325798,4200,"QUIERO LA DATA S.R.L","SN ARG",,"DARWIN 790",1414,"CAPITAL FEDERAL","AR",1161995333,,,30715078569,
20329791,4200,"NATALI DIEGO JOSE Y RINECKKI CYNTHI","DAN ARG",,"AV. SAN MARTIN 1555",1602,"FLORIDA","AR",0,,,30709782548,
20329943,4200,"BATER CATERINA","SN ARG",,"MORENO 877",1091,"CAPITAL FEDERAL","AR",1162951130,,,27345517354,
20329254,4200,"INTERVENCIONES CREATIVAS BRIO SRL","SN ARG",,"PUEYRREDON 1788",1425,"CAPITAL FEDERAL","AR",1544168107,,,30714607061,
20331962,4200,"AARHUSKARLSHAMN LATIN AMERICA SA",,,"CAMINO PASO DE LA ARENA 246",12700,"MONTEVIDEO","UY",23135135,,214947990014,,
20332188,4200,"ELECTROTERMA MAR DEL PLATA S.R.L.","SN ARG",,"CALLE 5 PARQUE INDUSTRIAL GRAL SAV",7601,"MAR DEL PLATA","AR",2234649999,,,30711122318,
20332550,4200,"ROGELIO FERNANDO AZZI","SN ARG",,"AV. SANTA FE 3344 PISO 8 OFICINA 19",1425,"CAPITAL FEDERAL","AR",,,,20076004073,
540001553,4200,"GONZALO JOSE BRUHL",,,"SANTA FE 5217",1425,"CAPITAL FEDERAL","AR",,,,20397322662,
20333126,4200,"PELLIZZARI CHRISTIAN ANDRES","SN ARG",,"PTE. NESTOR KIRCHNER 1332",1804,"EZEIZA","AR",0,,,20216007388,
20334121,4200,"LIVE IN BA S.A","SN ARG",,"AV. GRAL. JUAN DOMINGO PERÓN 5820",1621,"BENAVÍDEZ","AR",1123441501,,,30714247073,
20209071,4200,"GIFT CARD ARGENTINA S.A.","SN ARG",,"AV LUIS MARIA CAMPOS 46 3 A",1425,"CAPITAL FEDERAL","AR",0,,,30711633959,
20280144,4200,"FARMACIA NUEVO DIEGO S SOCIEDAD EN","SN ARG",,"LA RIOJA 287",1214,"CAPITAL FEDERAL","AR",,,,33582549619,
20334427,4200,"LEGION PRECO SRL","SN ARG",,"ADOLFO ALSINA 1433",1088,"CAPITAL FEDERAL","AR",43834774,,,33715132449,
20334429,4200,"SERVICIOS ECO REC SA","SN ARG",,"LA PAMPA 1420",1428,"CAPITAL FEDERAL","AR",46524230,,,30702946863,
20243017,4200,"BOLSA DE COMERCIO DE MENDOZA SA","SN ARG",,"SARMIENTO 165",5500,"MENDOZA","AR",1143113741,,,30515422834,
20003516,4200,"R-BIOPHARM AG","SN ARG",,"AN DER NEUENBERGSTRAßE 17",64297,"HESSE","DE",49615181020,,"DE111657409",,
20315635,4200,"PONS VICENTE DARIO","SN ARG",,"CASTELLI 1238",1702,"CIUDADELA","AR",1138294195,,,20235688884,
20334975,4200,"ECHEVARRIA - ROMANO S.R.L.","SN ARG",,"ARENALES 3069 4B",1425,"CAPITAL FEDERAL","AR",48244222,,,30710765630,
20334987,4200,"ROCKING DATA SAS","SN ARG",,"CIUDAD DE LA PAZ 1965",1428,"CAPITAL FEDERAL","AR",1156154845,,,30715832840,
20259827,4200,"DARRIBA EMILIO JOSE","SN ARG",,"CIUDAD DE LA PAZ 1571, PISO 8 DPTO",1426,"CAPITAL FEDERAL","AR",0,,,20045308759,
20201536,4200,"FX INFORMATICA S.A.","SN ARG",,"SAN MARTIN 3073",1684,"EL PALOMAR","AR",,,,30663743542,9021074931
20335819,4200,"INTERCRON SRL","SN ARG",,"VALDENEGRO 3201",1431,"CAPITAL FEDERAL","AR",45455400,,,30682649107,
20336423,4200,"AMADO WALTER DANIEL","SN ARG",,"CALLE 133 Nº 629",1886,"CITY BELL","AR",,,,20179928877,20179928877
20195043,4200,"REF MAR SRL","SN ARG",,"JURAMENTO 792",7600,"MAR DEL PLATA","AR",223480395,,,33615145799,10000000000
20336770,4200,"ZEITPLAN SRL","SN ARG",,"GUAMINI 1151",1408,"CAPITAL FEDERAL","AR",1132924946,,,30712352341,
20336887,4200,"MIGUEL NOVARA Y ASOCIADOS SA","SN ARG",,"AVDA. SANTA FE 882 1 A",1019,"CAPITAL FEDERAL","AR",43144444,,,30657998318,
20336888,4200,"COLEGIO DE PROFESIONALES DE LA HI","SN ARG",,"CALLE 13 N° 63",1900,"LA PLATA","AR",,,,30717203913,
20195417,4200,"SERVICIOS ESTIN SRL","DAN AR",,"BOEDO 1639",1876,"BERNAL","AR",,,,30707312021,9010455680
20337912,4200,"Q & T TRADE S.R.L.","SN ARG",,"AZCUENAGA 124",1704,"RAMOS MEJIA","AR",35351186,,,30710399812,
20195641,4200,"INDUSTRIAS KOBACH HNOS S.R.L.","SN ARG",,"ARTURO ILLIA 1469",1661,"BELLA VISTA","AR",,,,30711124159,30711124159
20337959,4200,"CADSYST SRL","SN ARG",,"AV. CABILDO 2779 PISO 7 A",1428,"CAPITAL FEDERAL","AR",47884367,,,30708446129,
20252384,4200,"HYPRED ARGENTINA SA","SN ARG",,"CALLE PUBLICA SN RUTA 5 KM 4 1/2",5000,"CORDOBA","AR",,,,30710418574,"904-244838-"
20338925,4200,"RAFELAB SOCIEDAD RESPONSABILIDAD LI","SN ARG",,"COMISARIO V KAISER 129",2300,"RAFAELA","AR",3492570889,,,30711645973,
540001610,4200,"MONICA ESTHER PAMPIN",,,"MORENO 877",1091,"CAPITAL FEDERAL","AR",,,,27167662647,
540001620,4200,"CASTELLANO PABLO",,,"MORENO 877",1091,,"AR",,,,20270178945,
20217844,4200,"BANCO DE LA CIUDAD DE BS AS","SN ARG",,"FLORIDA 302",1005,"CAPITAL FEDERAL","AR",,,,30999032083,
20339405,4200,"AJEC AUTOADHESIVOS SA",,,"SAENZ 326",1722,"MERLO","AR",2204850666,,,30557782393,
20252937,4200,"ABRIL MED SOCIEDAD ANONIMA","SN ARG",,"ELCANO 3669",1427,"CAPITAL FEDERAL","AR",,,,33707634389,33707634389
20339855,4200,"NUEVA GEO S.A.","SN ARG",,"AV PTE ILLIA 7636",1615,"GRAND BOURG","AR",2320433939,,,30715783130,
20285971,4200,"CAJA DE PREVISION SOCIAL PARA ABOGA","DAN ARG",,"LA PLATA NOROESTE CALLE 50",1900,"LA PLATA","AR",0,,,30532708059,
20342476,4200,"TELEPEAJE S.A","SN ARG",,"SANTA ROSA 1718",1602,"FLORIDA","AR",39883037,,,30709279501,
20339166,4200,"SUPPLY SOLUTIONS S.A","SN ARG",,"ARTIGAS JOSE GERVASIO G 5556",1419,"CAPITAL FEDERAL","AR",1136773209,,,30717131483,
20337693,4200,"KROMBERG FINE CHEMICALS SRL","SN ARG",,"SEPTIEMBRE N°151 PARQUE INDUSTRIAL",1625,"ESCOBAR","AR",112635922,,,30709614149,
20279264,4200,"DHL EXPRESS (ARGENTINA) SA","SN ARG",,"LARRAZABAL 2255",1440,"CAPITAL FEDERAL","AR",1139061970,,,30580111315,"901-932572-"
20279263,4200,"GRUPO LINDE GAS ARGENTINA SOCIEDAD","SN ARG",,"CALLE 54 (EX MITRE) 2075",1617,"BARRIO RICARDO ROJAS","AR",,,,30501395389,
20279271,4200,"EMPORIO GASTRONOMICO ARGENTINO S.A.","SN ARG",,"PAVON 2565",1248,"CAPITAL FEDERAL","AR",,,,30546820218,"901-924117-"
20279284,4200,"PRILLWITZ Y CIA S R L","SN ARG",,"AUSTRIA NORTE 1679",1617,"TIGRE","AR",47150100,,,30525778467,
20279283,4200,"TEPELCO S.A.C.I.","SN ARG",,"J.J DE URQUIZA 889",1704,"RAMOS MEJIA","AR",,,,30519890573,9028681129
20279289,4200,"INSTITUTO NAC. DE TECNOLOGIA INDUST","SN ARG",,"AV. LEANDRO N. ALEM 1067",1001,"CAPITAL FEDERAL","AR",,,,30546687062,
20279286,4200,"FERRETERIA INDUSTRIAL DIKA SRL","SN ARG",,"AV. MITRE 3446",1605,"MUNRO","AR",,,,33620218419,"33-62021841"
20279298,4200,"MAPFRE ARGENTINA DE SEGUROS S A","SN ARG",,"JUANA MANSO 205",1107,"CAPITAL FEDERAL","AR",,,,30500007539,"901-912411-"
20279301,4200,"LRM ELECTRONICA SRL","SN ARG",,"TALCAHUANO 234",1603,"CAPITAL FEDERAL","AR",,,,30639887584,"902-890786-"
20279307,4200,"INSTAK SRL","SN ARG",,"SARMIENTO 1638",1042,"CAPITAL FEDERAL","AR",,,,30624105865,"901-932282-"
20279315,4200,"COFFICE S.A.","SN ARG",,"CAMINO REAL MORÒN 2056",1609,"MORON","AR",,,,30696614993,"902-439012-"
20279321,4200,"G BREUER ABOGADOS","SN ARG",,"25 DE MAYO 460 P 1?",1002,"CAPITAL FEDERAL","AR",21507500,,,30618824108,
20279328,4200,"SEICO S.A.","SN ARG",,"AV. SUCRE 1869",1642,"SAN ISIDRO","AR",,,,30661961674,
20279337,4200,"VICTOR MASSON TRANSPORTES CRUZ DEL","SN ARG",,"RICHIERI Y BOULOGNE SUR MER",1720,"TAPIALES","AR",,,,30556565798,"902-913567-"
20279341,4200,"BOSCH REXROTH S.A.I.C.","SN ARG",,"BLANCO ENCALADA 5619",1431,"CAPITAL FEDERAL","AR",,,,30503494651,"901-916708-"
20279361,4200,"JAZZ-CAR S.A.","SN ARG",,"AV DEL LIBERTADOR 1329",1638,"VICENTE LOPEZ","AR",,,,30707478140,"901-211514-"
20279375,4200,"FUNDACION HOSPITAL DE PEDIATRIA JU","SN ARG",,"COMBATE DE LOS POZOS 1881 P:2",1245,"CAPITAL FEDERAL","AR",,,,30626219043,
20279378,4200,"FOUR ESTRATEGIA Y COMUNICACION S.R.","SN ARG",,"RAMON FREIRE 1753",1000,"CAPITAL FEDERAL","AR",,,,30710875134,"1184329-02"
20279455,4200,"IMPREARTE SRL","SN ARG",,"VIAMONTE 377",1053,"CAPITAL FEDERAL","AR",,,,30707715002,"30-70771500"
20279498,4200,"CORANIA S.R.L.","SN ARG",,"ALSINA 1760 - P 3 OF. 13",1000,"CAPITAL FEDERAL","AR",,,,33708492979,9010704816
20279542,4200,"ESTUDIOS INFECTOLOGICOS","SN ARG",,"SCALABRINI ORTIZ AV. 676",1414,"CAPITAL FEDERAL","AR",,,,30641783613,77836603
20279532,4200,"SWISS MEDICAL S.A.","DAN ARG",,"SAN MARTIN 323 P:18",1004,"CAPITAL FEDERAL","AR",,,,30654855168,9010457004
20279557,4200,"MONICA SUSANA GOMEZ","SN ARG",,"PEÑA 3130 P:4 DEP:B",1425,"CAPITAL FEDERAL","AR",,,,27140157622,
20279583,4200,"ADHEPLAST REVESTIMIENTOS SRL","SN ARG",,"ZAPIOLA 3030",1429,"CAPITAL FEDERAL","AR",,,,30695296386,
20279584,4200,"INSTITUTO CULTURAL ARGENTINO","SN ARG",,"MAIPU 686",1006,"CAPITAL FEDERAL","AR",,,,30526108465,9014029548
20279625,4200,"OS5 SA","SN ARG",,"INCLAN 3811",1258,"CAPITAL FEDERAL","AR",,,,33712294529,9016714041
20279663,4200,"HAVANNA SA","SN ARG",,"BRANDSEN 3251",7600,"CAPITAL FEDERAL","AR",,,,33697235049,"901-905451-"
20279684,4200,"SEVEN IMPORT SA","SN ARG",,"AV RIVADAVIA 680 PB",1625,"CAPITAL FEDERAL","AR",,,,30694549361,"901-196939-"
20279683,4200,"LATTEMANN LUIS CARLOS","SN ARG",,"CUYO 342",1641,"ACASSUSO","AR",,,,20046077653,"20-04607765"
20279685,4200,"JOSE ALBERTO TALIERCIO","SN ARG",,"ESCALADA 2173",1407,"CAPITAL FEDERAL","AR",,,,20105395109,"0059070-03"
20279687,4200,"ARRUA CAROLINA VERONICA","SN ARG",,"CALLE 21 Nº 3401",1651,"CAPITAL FEDERAL","AR",,,,27269116655,"902-630320-"
20279692,4200,"SEVENPLAST S.A.","SN ARG",,"PUEYRREDÓN 847",1708,"MORON","AR",,,,30592751255,"902-869292-"
20279695,4200,"CENTRAL LABORATORIES FRIEDRICH","SN ARG",,"ANSCHRIFT: BAHNSTRABE 14-30",61381,"FRIEDRICHSDORF","DE",,,,55000004005,
20279697,4200,"GERRESHEIMER BUENOS AIRES SA","SN ARG",,"MERCEDES 2153",1000,"CAPITAL FEDERAL","AR",,,,30696220308,
20279699,4200,"TEKNOBAIRES SH","SN ARG",,"MITRE 3358 - 2° P - OF 37",1650,"CAPITAL FEDERAL","AR",,,,30708648112,
20279702,4200,"MUTUAL ENTRE ASOC. FRANCK","SN ARG",,"GDOR GALVEZ 2268",3009,"SANTA FE","AR",,,,30638258176,"30-63825817"
20279705,4200,"METALURGICA GUADALUPE SRL","SN ARG",,"CALLE 49 Nº 5719",1653,"VILLA BALLESTER","AR",,,,30707799907,"901-055260-"
20279706,4200,"AZCOM SRL","SN ARG",,"AV. CORRIENTES 4416",1195,"CAPITAL FEDERAL","AR",,,,30709369896,"901-214372-"
20279711,4200,"TECNODELTA","SN ARG",,"LAS FLORES 1600 30 3º C",1875,"CAPITAL FEDERAL","AR",,,,20143644430,"20-14364443"
20279722,4200,"TERMOPLASTICOS ANTARTIDA SA","SN ARG",,"JEAN JAURES 4402",1822,"CAPITAL FEDERAL","AR",,,,30696167652,"901-902528-"
20279723,4200,"TECNICA LIFT SA","SN ARG",,"26 DE JULIO N° 5495",1653,"CAPITAL FEDERAL","AR","4767 9437",,,30711112002,9024035117
20279724,4200,"KERNIUM S A","SN ARG",,"BLANCO ENCALADA 2480",1609,"CAPITAL FEDERAL","AR","4897 5586",,,33710745949,9012787307
20279727,4200,"ANTONIO MOLINERO","SN ARG",,"BELGRANO 639",1614,"CAPITAL FEDERAL","AR","03488 472441",,,20934700091,"20-93470009"
20279728,4200,"FOREST URBAN SRL","SN ARG",,"AYACUCHO 826",1706,"CAPITAL FEDERAL","AR","4659 0045",,,30710352581,9012686469
20279729,4200,"REGNER EMILIO","SN ARG",,"VALETIN GOMEZ 7775",1669,"CAPITAL FEDERAL","AR",1556686176,,,20240377196,20240377196
20279733,4200,"D AMICO EDGARDO EMILIO","SN ARG",,"H YRIGOYEN 2155",1602,"CAPITAL FEDERAL","AR",47967979,,,20078261855,20078261855
20279735,4200,"RODRIGUEZ ELIO RICARDO","SN ARG",,"R. GUTIERREZ 1258",1623,"CAPITAL FEDERAL","AR",3484442412,,,20161497704,20161497704
20279737,4200,"MAQUINARIA PARA INDUSTRIA SA","SN ARG",,"9 DE JULIO 213 GOD CRUZ",5501,"MENDOZA","AR",2615628142,,,30707813004,9135059391
20279739,4200,"FULL PRODUCTION SA","SN ARG",,"MARCONI 4160 MUNRO",1605,"MUNRO","AR",,,,30708521066,9015413153
20279742,4200,"ROCA GRACIELA","SN ARG",,"BARRIO TALAR DEL LAGO2 LOTE257",1617,"CAPITAL FEDERAL","AR",,,,27202094703,2720209470
20279751,4200,"TECNOHIDRAULICA","SN ARG",,"LUIS MARIA CAMPOS 2676",1609,"TORTUGUITAS","AR",,,,20229487877,
20279759,4200,"WASHINGTON FERRARI","SN ARG",,"ARTIGAS 4783",1419,"CAPITAL FEDERAL","AR",1562597730,,,24255981214,
20279764,4200,"CINMOR SRL","SN ARG",,"GIRARDOT 1413",1427,"CAPITAL FEDERAL","AR",,,,30714004154,"901-475487-"
20279772,4200,"GRUPO DE ESTUDIOS DEL MEDIO AMBIENT","SN ARG",,"118 (ENTRE 35 Y 36)",1900,"LA PLATA","AR",,,,30710218087,
20279806,4200,"KESSLER MARIA PAULA","SN ARG",,"MIRO 532",1406,"CAPITAL FEDERAL","AR",40374339,,,27231019834,"27-23101983"
20279814,4200,"CASANORA S.A","SN ARG",,"DEAN FUNES 1575",1244,"CAPITAL FEDERAL","AR",20557448,,,33711100909,"901-407585-"
20279821,4200,"SOLUCIONES INDUSTRIALES ME-LEC S.R.","SN ARG",,"ARISTOBULO DEL VALLE 561",2800,"ZARATE","AR",,,,30714452084,"30-71445208"
20279822,4200,"RYDEX S.A","SN ARG",,"TAPIA DE CRUZ 939",1625,"ESCOBAR","AR",433033,,,33709108129,"901-20867-3"
20279825,4200,"PAEZ FERNANDO AGUSTIN","SN ARG",,"LAFINUR 1113",5519,"GUAYMALLEN","AR",2614324334,,,20309243030,"20-30924303"
20279831,4200,"DE PIETRO VIDRIOS Y ABERTURAS S.R.L","SN ARG",,"SANTA MARIA 3879",1648,"TIGRE","AR",,,,30714473014,"30-71447301"
20279835,4200,"BARRETTO LUCIANA","SN ARG",,"MANUEL UGARTE 3133 piso 3 depto A",1428,"CAPITAL FEDERAL","AR",1550154478,,,27291734001,27291734001
20279837,4200,"JBMNET S.R.L","SN ARG",,"LAS HERAS 2832",1602,"FLORIDA","AR",,,,30714696617,"902-283341-"
20279836,4200,"GLOBAL VIP TRANSFER S.A","SN ARG",,"URQUIZA 2656",3000,"SANTA FE","AR",4563386,,,30710419899,"011-134913-"
20279840,4200,"MARKET SA PUBLICIDAD COMUNICACIONES","SN ARG",,"AV. DEL LIBERTADOR 184",1001,"CAPITAL FEDERAL","AR",43131264,,,30663510254,"901-15431-1"
20279843,4200,"TAMPOPRESS SH DE DANIEL PIRALI Y MA","SN ARG",,"AV. SAN MARTIN 3810",1602,"FLORIDA","AR",,,,30662629479,"902-843464-"
20279842,4200,"QUICK CAR S.A.","SN ARG",,"SAN MARTIN 1137",1004,"CAPITAL FEDERAL","AR",,,,30708219173,109565104
20279846,4200,"SOSA OSCAR ALBERTO","SN ARG",,"JUANA AZURDUY 3682",1430,"CAPITAL FEDERAL","AR",,,,20203474416,20203474416
20279855,4200,"NET CALIBRACIONES S.A","SN ARG",,"MALABIA 82",1609,"BOULOGNE","AR",47635200,,,30711107718,"902-403157-"
20279861,4200,"RICARDO WAGNER S.A.","SN ARG",,"14 (ESPORA) 3681",1672,"VILLA LYNCH","AR",47541700,,,30662519746,9021278930
20279863,4200,"BELMONTE MIGUEL ANGEL","SN ARG",,"AV. SANTA FE 3858, ENTREP A",1425,"CAPITAL FEDERAL","AR",48315269,,,20178792998,8004428
20279865,4200,"FUNDACION CIDEA","SN ARG",,"BILLINGHURST 1677",1425,"CAPITAL FEDERAL","AR",52531290,,,30702213696,30702213696
20279866,4200,"OMANCINI Y CIA S.A.","SN ARG",,"BALCARCE 1527",1708,"MORON","AR",37500509,,,30712694307,
20279869,4200,"WIEDEMANN ADRIANA ZORAYA","SN ARG",,"VALENTIN VERGARA 3394",1604,"FLORIDA","AR",47613911,,,27256443371,9027716551
20279874,4200,"PEPE WALTER JAVIER","SN ARG",,"CORONEL RONDEAU 637",1825,"LANUS","AR",1545406759,,,20235100542,20235100542
20279876,4200,"LINARDI MATIAS SEBASTIAN","SN ARG",,"CORONEL ALBARIÑOS 2977",1826,"REMEDIOS DE ESCALADA","AR",39654676,,,20288638978,20288638978
20279881,4200,"VALERIA PAOLA SARFATIS","SN ARG",,"FÉLIX DE AZARA 355 2 B",1267,"CABA","AR",0,,,27280808976,27280808976
20279883,4200,"IMCO-STAMPI S.A.","SN ARG",,"SAN MARTIN 210",5507,"LUJAN DE CUYO","AR",48490020,,,30710766157,9135081372
20279889,4200,"EMIGRA USA LLC","SN ARG",,450,22190,"ESTADOS UNIDOS","US",,,,55000002126,
20279891,4200,"KATO PRODUCCIONES S.R.L.","SN ARG",,"ORTIZ DE OCAMPO 3302",1425,"CAPITAL FEDERAL","AR",48561645,,,30712377158,30712377158
20279895,4200,"POY MABEL SUSANA","SN ARG",,"1° DE MAYO 2397",1879,"QUILMES","AR",42605910,,,27138323825,9028192358
20279909,4200,"AEROPACKAGING SA","SN ARG",,"BELGRANO 605",1617,"CAPITAL FEDERAL","AR",,,,30708069090,9010608714
20279915,4200,"MARCHETTINI ANABEL MARINA","SN ARG",,"SALTA 618",1872,"SARANDI","AR",41142611,,,27226168104,27226168104
20279922,4200,"SCIGLIANO FABIAN MARCELO","SN ARG",,"BLANCO ENCALADA 5619",1431,"CAPITAL FEDERAL","AR",,,,20204691585,9012112327
20279928,4200,"ALBERTELLI FLORENCIA NOEL","SN ARG",,"MURILLO 674",1414,"CAPITAL FEDERAL","AR",1565820121,,,27337096994,
20279942,4200,"LLORCA SANTIAGO","SN ARG",,"ROSALES 2620 P:4 DEP:2 T:JACAR",1636,"OLIVOS","AR",,,,20113867117,20113867117
20279949,4200,"SILVER FREIGHT LOGISTIC S.R.L.","SN ARG",,"SEGUI JUAN FRANCISCO 4646",1000,"CAPITAL FEDERAL","AR",,,,30709599697,9012191350
20279953,4200,"TORTI HUGO LUIS","SN ARG",,"BASUALDO 1013",1440,"CAPITAL FEDERAL","AR",46357630,,,20044459524,
20279972,4200,"GUTIERREZ MARCELO DANIEL","SN ARG",,"GRAL PAZ 563",1625,"ESCOBAR","AR",348448915,,,20185566545,20185566545
20279979,4200,"CARLOS CLAUDIO GUILLERMO LEMOS","SN ARG",,"GENOVA 4029",1702,"CIUDADELA","AR",46532067,,,20180232088,
20279981,4200,"CAYO ANGEL ROBERTO","SN ARG",,"REMEDIOS DE ESCALADA 792",1686,"HURLINGHAM","AR",57171676,,,20143841236,20143841236
20280012,4200,"WIN INDUMENTARIA S.A.","SN ARG",,"SANTANDER 5752",1439,"CAPITAL FEDERAL","AR",46015590,,,30714426393,9013020001
20280015,4200,"BRIZUELA JOSE LUIS","SN ARG",,"SAN IGNACIO, 280",1629,"PILAR","AR",1560311306,,,20344046264,20344046264
20280018,4200,"VILLAREAL DIEGO MARTIN","SN ARG",,"FRANCIA 1908",1618,"PACHECO","AR",1161700379,,,20288801402,"20-28880140"
20280055,4200,"KONIG NICOLE","SN ARG",,"LIBERTADOR 232",1648,"VICENTE LOPEZ","AR",66945918,,,27932061304,
20280142,4200,"PERLADE SA","SN ARG",,"AVDA. RICHIERI 4007",3016,"SANTO TOMÉ","AR",4749787,,,30709464678,
20280146,4200,"CORIFERSA S.A.","SN ARG",,"LEANDRO N.ALEM 1002",1001,"CAPITAL FEDERAL","AR",47696663,,,30611532136,
20280155,4200,"DEPIETRI CARINA","SN ARG",,"JOSE INGENIEROS 4185",1643,"CAPITAL FEDERAL","AR",50352242,,,27149133491,27149133491
20280161,4200,"MERKABA CONSULTING SA","SN ARG",,"RECONQUISTA 870 - 8º ""29"" C.A.B.A.",1003,"CAPITAL FEDERAL","AR",49218187,,,30704964400,"901-733276-"
20280213,4200,"RUSSO DAMIAN R Y RUSSO LEONEL A","SN ARG",,"SUIPACHA 2838",1613,"LOS POLVORINES","AR",52632288,,,30715026887,"902-638243-"
20280223,4200,"TAMPOMAX S.R.L.","SN ARG",,"WAGNER 1257",1407,"CAPITAL FEDERAL","AR",1145686427,,,30708884886,
20280234,4200,"RELOCATELY GMBH","SN ARG",,"SCHLICKERSTRABE 5-7",10179,"BERLIN","DE",5792367419,,,"DE296834593",
20280244,4200,"IDEX MPT INC DBA MATCON AMERICAS","SN ARG",,"UNDERWOOD BOULEVARD, SUITE 2",8075,"DELRAN","US",,,,55000002126,
20280238,4200,"SALGADO ANA MARIA","SN ARG",,"AV JUAN B ALBERDI 4457",1407,"CAPITAL FEDERAL","AR",1559777228,,,27120877289,
20280237,4200,"TOYOTA MATERIAL HANDLING MERCOSUR","SN ARG",,"PARIS 165 COLECTORA ESTE",1611,"DON TORCUATO","AR",21525500,,,30708687800,9028204158
20280268,4200,"RINALDI NESTOR FABIAN","SN ARG",,"JUNIN 658 P:2 OF 363",1026,"CAPITAL FEDERAL","AR",50312443,,,20206366975,
20280288,4200,"SOLUCIONES DE IZAJES SRL","SN ARG",,"LETONIA 1044",1663,"SAN MIGUEL","AR",52921003,,,30711579709,
20280308,4200,"CASAVELLA Y CORTES SH","SN ARG",,"ACASSUSO 1524",1642,"SAN ISIDRO","AR",41489846,,,30712257527,
20280309,4200,"TRANSCARGO ARGENTINA SA","SN ARG",,"ALEM LEANDRO N AV 712 P 10",1001,"CAPITAL FEDERAL","AR",52187500,,,30709658170,"901-220315-"
20280314,4200,"DSS SUSTAINABLE SOLUTIONS ARGENTINA","SN ARG",,"CORRIENTES AV. 330 P: 6 OFIC: 612",1043,"CAPITAL FEDERAL","AR",1168494439,,,30716518953,
20280326,4200,"BIO OPTIC SRL","SN ARG",,"HIPOLITO YRIGOYEN 2789",1602,"FLORIDA - VICENTE LOPEZ","AR",54350175,,,30711706417,90230711706
20201446,4200,"FORVIS S R L","SN ARG",,"SGO. DEL ESTERO 00345",1075,"CAPITAL FEDERAL","AR",,,,30502752924,9019179076
20201464,4200,"PANALPINA TRANSPORTES MUNDIALES SA","SN ARG",,"AV BOUCHARD 547 3ER P",1106,"CAPITAL FEDERAL","AR",,,,30659079468,
20201468,4200,"CASTRO NOEMI PATRICIA","SN ARG",,"J.B AMBROSETTI 96 6B",1405,"CAPITAL FEDERAL","AR",43313269,,,23129876204,23129876204
20201506,4200,"STYLUS S.A.","SN ARG",,"AZOPARDO 1486",1107,"CAPITAL FEDERAL","AR",,,,30612238355,9011971001
20201515,4200,"INSTRUMENTACION CIENTIFICA SA","SN ARG",,"SAAVEDRA 1021",1229,"CAPITAL FEDERAL","AR",,,,30641708174,9019544330
20201563,4200,"PLUSCARGO ARGENTINA S.A.","SN ARG",,"RIVADAVIA 413",1002,"CAPITAL FEDERAL","AR",,,,30691231751,4812210
20201581,4200,"FUNARG S.A.","SN ARG",,"VON WERNICKE 3054",1642,"SAN ISIDRO","AR",,,,30697989575,9010635344
20201590,4200,"GRUPO OXEAN S.A.","SN ARG",,"PARAGUAY 346 P 13",1057,"CAPITAL FEDERAL","AR",,,,30708425407,111083908
20201608,4200,"KROLL ASSOCIATES S.A.","SN ARG",,"AV DEL LIBERTADOR 6570",1428,"CAPITAL FEDERAL","AR","4 706 6000",,,30687318907,9011876869
20201619,4200,"TOPAZIO ADRIANA CRISTINA","SN ARG",,"VILELA 2812",1429,"CAPITAL FEDERAL","AR",,,,27164976381,
20201708,4200,"MINNITI ALEJANDRO FABIO","SN ARG",,"BASUALDO 123 4TO P DPTO D",1408,"CAPITAL FEDERAL","AR",46352986,,,20148121304,112321503
20201817,4200,"MD NETWORKS S.R.L.","SN ARG",,"VIAMONTE 927",1053,"CAPITAL FEDERAL","AR","4 119 2030",,,30710221711,9012658775
20201842,4200,"ICAP S.A.","SN ARG",,"DIAZ VELEZ 3531",1200,"CAPITAL FEDERAL","AR","4 865 3755",,,30503825984,9019295928
20202218,4200,"TORRES CLAUDIO ENRIQUE","SN ARG",,"MONROE 3365",1430,"CAPITAL FEDERAL","AR",45776279,,,20183814789,
20203284,4200,"GARCIA VICTOR H.","SN ARG",,"AV. CORRIENTES 4063",1194,"CAPITAL FEDERAL","AR",,,,23149575359,"901-980560-"
20203299,4200,"NEXSYS ARGENTINA S.A.","SN ARG",,"11 DE SEPTIEMBRE 2173 P 8",1428,"CAPITAL FEDERAL","AR",,,,30701749606,9015374129
20215944,4200,"MONTI EDUARDO JOSE","SN ARG",,"Peña 3035 5b",1425,"CAPITAL FEDERAL","AR",31403852,,,20286424962,90120286424
20218246,4200,"CUSTOMER VALUE MANAGEMENT LATIN","CUSTOMER V",,"R TABAPUA 821, CONJ 116",4533013,"SAO PAULO","BR","11 3841 9030","00 0000 0000",,4186681000185,
20227693,4200,"INTERTEK TESTING SERVICES ARGENTINA","SN ARG",,"Cerrito 1136",1010,"CAPITAL FEDERAL","AR",52179487,,,33678814119,9011675952
20228685,4200,"INTEKNO ARGENTINA SRL","SN ARG",,"Av. Presidente Peron 8725",1714,"CAPITAL FEDERAL","AR",52630781,,,30715242202,"30-71524220"
20242680,4200,"FIDELITAS S.A.","SN ARG",,"CABILDO 924",1426,"CAPITAL FEDERAL","AR",1152549950,,,30641368977,9012071069
20243535,4200,"LAS LEÑAS SERV EJECUTIVOS SRL","SN ARG",,"Constituyentes 2096",1667,"CAPITAL FEDERAL","AR",1102320493700,,,30711058202,
20243661,4200,"COLLANTE DIEGO HERNAN","SN ARG",,"LUIS M DRAGO 1931",1052,"BURZACO","AR",1142386990,,,20240399394,20240399394
20243929,4200,"24X7 REMIS Y TRANSPORTE","SN ARG",,"SOSA DEL VALLE 3109",1878,"QUILMES","AR",1142539704,,,30712426531,
20244073,4200,"ADITIVOS ALIMENTARIOS SRL","SN ARG",,"Avda Larrazabal 2222",1439,"CAPITAL FEDERAL","AR",1146833505,,,30707417486,
20243662,4200,"ONLY TRANSFER SRL","SN ARG",,"URUGUAY 4888",1643,"SAN ISIDRO","AR",1147657480,,,30715537105,30715537105
20246277,4200,"MAILCAR S.R.L.","SN ARG",,"AV. SANTA FE 1150",1059,"CAPITAL FEDERAL","AR",1143115111,,,30705463367,9010377506
20250720,4200,"CASAL JORGE A.","SN ARG",,"25 DE MAYO",1852,"BURZACO","AR",,,,20169782238,"902-113993-"
20250865,4200,"CASTRO JAVIER MAXIMILIANO","SN ARG",,"MORELOS 481 PB.",1406,"CAPITAL FEDERAL","AR",,,,20262815189,"1135361-09"
20250963,4200,"KIREILIS DANIEL HENRY","SN ARG",,"BOGOTA 1465",1617,"GENERAL PACHECO","AR",47150825,,,20924122480,
20251408,4200,"DIAZ AVILA GLORIA ESTHER","SN ARG",,"GUEMES 2989 11 A",1425,"CAPITAL FEDERAL","AR",50212757,,,27176015824,
20251670,4200,"PAPELERA SANTA ANGELA SA","SN ARG",,"AV. DE LOS CONSTITUYENTES 2700",1617,"PACHECO","AR",,,,30552957012,
20251813,4200,"BENEFITS S.A.","SN ARG",,"ESMERALDA 950, P 2",1007,"CAPITAL FEDERAL","AR",53658500,,,30631823587,"901-947441-"
20251857,4200,"PECTAGAR S R L","SN ARG",,"AV.CASEROS 1980",1137,"CAPITAL FEDERAL","AR",,,,30650600238,"901-972717-"
20251899,4200,"ILSI ARGENTINA INTERNATIONAL","SN ARG",,"AV. SANTA FE 1145 4° P",1059,"CAPITAL FEDERAL","AR",,,,30661968083,
20251920,4200,"MIEBACH LOGISTICA S.A.","SN ARG",,"CERVIÑO 4449",1425,"CAPITAL FEDERAL","AR","4 771 4322",,,30677787283,"901-905297-"
20251972,4200,"B A SANI SA","SN ARG",,"REPUBLICA ORIENTAL D 7024",1770,"ALDO BONZI","AR",44428662,,,30689654483,"901-186480-"
20252119,4200,"FURLONG - FOX S.A.","SN ARG",,"CARLOS PELLEGRINI 1023 P.12",1009,"CAPITAL FEDERAL","AR",41083200,,,30707962743,"1087886-06"
20252221,4200,"ECOENERGIA S.A.","SN ARG",,"CAPITAN DE FRAGATA MOYANO 1050",1846,"ADROGUE","AR",42144178,,,30708869658,9024937471
20252280,4200,"TERCER TERMINO S.R.L","DAN ARG",,"ZABALA 3066",1426,"CAPITAL FEDERAL","AR",1162606965,,,30709342041,9015375306
20252553,4200,"OPINAIA S.A","SN ARG",,"11 DE SEPTIEMBRE 2464, P 3",1428,"CAPITAL FEDERAL","AR",,,,30712828400,9014536032
20252623,4200,"MIGUEL TOLEDO Y ALVARO PICO SH","SN ARG",,"AV. DEL LIBERTADOR 2442, P 4, OL",1636,"OLIVOS","AR",47118909,,,30714740462,"901-283575-"
20252810,4200,"MICHAEL PAGE INTERNATIONAL ARGENTIN","SN ARG",,"TTE GRAL J.D. PERON 1378",1378,"CAPITAL FEDERAL","AR","4 850 1213",,,33710567099,9014000598
20252900,4200,"LIFTVAN INTERNATIONAL COMPANY S A C","SN ARG",,"RUTA 202 N 3449 3449",1041,"CAPITAL FEDERAL","AR",,,,30536189625,30536189625
20255358,4200,"COSENTINO MENDEZ VITTORIO ANGEL","SN ARG",,"Roseti 2150 Of A",1427,"CAPITAL FEDERAL","AR",,,,20927201764,
20259814,4200,"DISTECNA.COM S.A.","SN ARG",,"Irala 1950, CABA.",1006,"CAPITAL FEDERAL","AR",51663400,,,30714636827,"30-71463682"
20260894,4200,"GROSSO WALDO JAVIER","SN ARG",,"MORNO 877",1091,"CAPITAL FEDERAL","AR",,,,20256955416,
20262076,4200,"TEISERA JULIO ARGENTINO","SN ARG",,"MORENO 877",1091,"CAPITAL FEDERAL","AR",,,,23107943099,
20261575,4200,"TECNOLAB SA","SN ARG",,"ESTOMBA 964",1427,"CAPITAL FEDERAL","AR",1145550010,,,30638975994,30638975994
20063985,4200,"EUROFINS DO BRASIL ANALISES","EUROFINS",,"ROD ENGENHEIRO ERMENI SN, KM 57,7 -",13337300,"INDAIATUBA","BR",,0,,4329668000138,35323342011
20151798,4200,"FBP SYSTEMS SA DE CV","FBP SYSTEM",,"COYOACAN 401",3103,"MEXICO DF","MX",525511078269,,,"FSY131219QR2",
20276468,4200,"TORRES DAVID ALEJANDRO","SN ARG",,"PINTOS 1718",1852,"BURZACO","AR",1151059655,,,20238128367,20238128367
20281117,4200,"ERM FRANCE SAS","SN ARG",,"13 RUE FAIDHERBE",7501,"CAPITAL FEDERAL","AR",33153241023,,,,
20242489,4200,"SOCIEDAD ANONIMA LA SIBILA","DAN ARG",,"MADRES DE PLAZA 25 DE MAYO 3020",2000,"ROSARIO","AR",4367500,0,,30588855631,
110043613,4200,"EXARIS",,,"34 RUE DU GRAND VAL",94370,"SUCY EN BRIE","FR","08 71 19 32 12",,"FR58481853885",48185388500020,
20281196,4200,"DISTRITEC S.A.","SN ARG",,"Av. 85 Nro. 1113",1650,"CAPITAL FEDERAL","AR",,,,30629395357,"901-941640-"
20195335,4200,"EXPPEL SERVICIO MEDICO LABORAL S.R.","SN ARG",,"HUALPA 351",5501,"GODOY CRUZ","AR","4 222 902",,,30711125988,9024479875
20194563,4200,"PREGNO FEDERICO CARLOS","SN_ARG",,"SALTA 3020",1636,"OLIVOS","AR",1150116012,,,20226517147,20226517174
20194604,4200,"VARITEL ING ELECTRONICA SA","SN ARG",,"BALIÑA 456",1832,"LOMAS DE ZAMORA","AR",,,,30708222417,3028118851
20194557,4200,"PROMINENT ARGENTINA S.A.","SN ARG",,"AV DE MAYO 1250",1607,"SAN ISIDRO","AR",47654521,"4 7429944",,30710400438,9024654167
20194718,4200,"SERENA COTTET PATRICIO EDUARDO","SN ARG",,"VILLA LUJAN 126",1872,"AVELLANEDA","AR",,,,20171031940,9028174054
20194682,4200,"S.A. LA NACION","SN ARG",,"AV. DEL LIBERTADOR 101",1638,"VICENTE LOPEZ","AR",,,,30500089624,
20195237,4200,"SOCIEDAD ARGENTINA DE PEDIATRIA","SN ARG",,"AV. CORONEL DIAZ 1971",1425,"CAPITAL FEDERAL","AR",,,,30545293885,
20195007,4200,"SIETE IDEAS SRL","SN ARG",,"3 DE FEBRERO 4247",1678,"Caseros","AR",52351993,,,30712117903,9026563198
20195243,4200,"ARTICULOS PROMOCIONALES S.A.","SN ARG",,"H. VIEYTES 751",1603,"VILLA MARTELLI","AR",,,,30707174265,9028266492
20194786,4200,"ROSENDO FERNANDO SEBASTIAN","SN ARG",,"AV BARTOLOME MITRE 4002",1605,"MUNRO","AR","15 32 44 1009",,,20350945351,9026051192
20195504,4200,"SISTEMAS DE CARGA S.A.","SN ARG",,"AVENIDA MAIPU 4088",1636,"OLIVOS","AR","0810 220 2030",,,30714378054,
20195736,4200,"PRENTEX S A","SN ARG",,"AV. REPUBLICA DEL LIBANO 4174",1672,"VILLA LYNCH","AR",47247200,,,30583464138,"901-926843-"
20230419,4200,"ARRIETA BRUNO MAURICIO","SN ARG",,"ANZORENA 656 GODOY CRUZ MENDOZA",5501,"MENDOZA","AR",5190996,,,20275802922,749088
20242030,4200,"BIZANT GROUP SH DE VMG Y AH","SN ARG",,"DANIEL CERRI 1059",1295,"CABA","AR",1133398560,,,30711038902,
